{"type":"FeatureCollection","features":[{"type":"Feature","properties":{"name":"فرودگاه بین‌المللی شهید هاشمی‌نژاد مشهد"},"geometry":{"type":"Polygon","coordinates":[[[59.66309,36.22015],[59.66626,36.22282],[59.66322,36.22519],[59.66334,36.2253],[59.66273,36.22578],[59.66271,36.22576],[59.66268,36.22576],[59.66264,36.22578],[59.66264,36.22584],[59.65948,36.22826],[59.65862,36.22755],[59.65612,36.22947],[59.65544,36.23003],[59.65506,36.23032],[59.64378,36.23899],[59.64325,36.23852],[59.63838,36.24232],[59.63835,36.24323],[59.6379,36.24405],[59.63751,36.24602],[59.62958,36.25201],[59.62985,36.25225],[59.62761,36.2539],[59.62716,36.25353],[59.62649,36.25404],[59.62474,36.2526],[59.62148,36.25338],[59.62136,36.2541],[59.62129,36.25407],[59.6197,36.25326],[59.62091,36.25131],[59.61801,36.24939],[59.61827,36.24917],[59.61948,36.24828],[59.61975,36.24786],[59.62052,36.24729],[59.62073,36.24733],[59.62226,36.24616],[59.62236,36.24544],[59.62189,36.24538],[59.62296,36.24428],[59.62321,36.24421],[59.62362,36.24395],[59.62373,36.24388],[59.62377,36.24384],[59.62481,36.24299],[59.62502,36.24316],[59.62534,36.2429],[59.62656,36.24283],[59.62657,36.24286],[59.62697,36.24284],[59.62701,36.24241],[59.62723,36.2424],[59.6272,36.24171],[59.6254,36.2418],[59.62664,36.24056],[59.62883,36.23838],[59.63069,36.23645],[59.63144,36.23573],[59.63136,36.23564],[59.6316,36.23539],[59.63175,36.23539],[59.63289,36.2356],[59.63346,36.23514],[59.63351,36.23517],[59.63352,36.23515],[59.63358,36.23519],[59.63397,36.23489],[59.63398,36.23462],[59.63399,36.23446],[59.63373,36.23445],[59.63357,36.23445],[59.63358,36.23372],[59.63451,36.23373],[59.6346,36.23373],[59.63444,36.23315],[59.63572,36.23216],[59.63764,36.23072],[59.63835,36.2313],[59.63917,36.23067],[59.64024,36.22989],[59.64005,36.22972],[59.64035,36.22947],[59.64022,36.22936],[59.64068,36.229],[59.64084,36.22903],[59.64146,36.22862],[59.64073,36.22801],[59.64167,36.22729],[59.64265,36.22653],[59.64274,36.2266],[59.64377,36.22579],[59.64382,36.22574],[59.64388,36.22569],[59.64446,36.22526],[59.64455,36.22519],[59.64455,36.22506],[59.64459,36.22503],[59.64455,36.22499],[59.64458,36.22497],[59.64335,36.22394],[59.64303,36.224],[59.64158,36.22507],[59.64117,36.22472],[59.64114,36.22466],[59.64108,36.22461],[59.6426,36.22345],[59.64762,36.22366],[59.6519,36.22034],[59.65237,36.21998],[59.65199,36.21966],[59.65208,36.21368],[59.65211,36.21363],[59.65215,36.21358],[59.65219,36.2136],[59.65223,36.21353],[59.655,36.21466],[59.6578,36.21579],[59.65791,36.21573],[59.66221,36.21939],[59.66263,36.21907],[59.66455,36.21758],[59.66546,36.21834],[59.66309,36.22015]]]}},{"type":"Feature","properties":{"name":"فرودگاه گلبهار"},"geometry":{"type":"Polygon","coordinates":[[[59.18903,36.59905],[59.1873,36.59847],[59.19012,36.5965],[59.19065,36.59698],[59.19651,36.59282],[59.19713,36.59337],[59.18903,36.59905]]]}}]}