{"type":"FeatureCollection","features":[{"type":"Feature","properties":{"name":"مشهد","kind":"city","rank":1},"geometry":{"type":"Point","coordinates":[59.60592,36.29749]}},{"type":"Feature","properties":{"name":"طرق","kind":"neighbourhood","rank":4},"geometry":{"type":"Point","coordinates":[59.66483,36.2093]}},{"type":"Feature","properties":{"name":"ابرغن","kind":"village","rank":5},"geometry":{"type":"Point","coordinates":[59.56553,36.44482]}},{"type":"Feature","properties":{"name":"کلاته تیموری","kind":"village","rank":5},"geometry":{"type":"Point","coordinates":[59.56713,36.45382]}},{"type":"Feature","properties":{"name":"کنویست","kind":"village","rank":5},"geometry":{"type":"Point","coordinates":[59.82264,36.29174]}},{"type":"Feature","properties":{"name":"عارفی","kind":"village","rank":5},"geometry":{"type":"Point","coordinates":[59.52171,36.13031]}},{"type":"Feature","properties":{"name":"طرقبه","kind":"town","rank":2},"geometry":{"type":"Point","coordinates":[59.37413,36.30972]}},{"type":"Feature","properties":{"name":"حصار","kind":"village","rank":5},"geometry":{"type":"Point","coordinates":[59.40439,36.30637]}},{"type":"Feature","properties":{"name":"نغندر","kind":"village","rank":5},"geometry":{"type":"Point","coordinates":[59.29874,36.35603]}},{"type":"Feature","properties":{"name":"ویرانی","kind":"village","rank":5},"geometry":{"type":"Point","coordinates":[59.39222,36.40116]}},{"type":"Feature","properties":{"name":"نوغان","kind":"neighbourhood","rank":4},"geometry":{"type":"Point","coordinates":[59.61876,36.29348]}},{"type":"Feature","properties":{"name":"شادکان","kind":"neighbourhood","rank":4},"geometry":{"type":"Point","coordinates":[59.63908,36.29736]}},{"type":"Feature","properties":{"name":"سناباد","kind":"neighbourhood","rank":4},"geometry":{"type":"Point","coordinates":[59.59086,36.29845]}},{"type":"Feature","properties":{"name":"کوثر","kind":"neighbourhood","rank":4},"geometry":{"type":"Point","coordinates":[59.51665,36.31809]}},{"type":"Feature","properties":{"name":"گنبدواز","kind":"village","rank":5},"geometry":{"type":"Point","coordinates":[59.58793,36.45683]}},{"type":"Feature","properties":{"name":"نوچاه","kind":"village","rank":5},"geometry":{"type":"Point","coordinates":[59.60075,36.43815]}},{"type":"Feature","properties":{"name":"روستای لک لک","kind":"village","rank":5},"geometry":{"type":"Point","coordinates":[59.61535,36.42545]}},{"type":"Feature","properties":{"name":"کلاکوب","kind":"village","rank":5},"geometry":{"type":"Point","coordinates":[59.62655,36.43346]}},{"type":"Feature","properties":{"name":"رده","kind":"neighbourhood","rank":4},"geometry":{"type":"Point","coordinates":[59.66396,36.31359]}},{"type":"Feature","properties":{"name":"کوی طلاب","kind":"neighbourhood","rank":4},"geometry":{"type":"Point","coordinates":[59.64315,36.30239]}},{"type":"Feature","properties":{"name":"توس","kind":"town","rank":2},"geometry":{"type":"Point","coordinates":[59.51694,36.4833]}},{"type":"Feature","properties":{"name":"امامیه","kind":"neighbourhood","rank":4},"geometry":{"type":"Point","coordinates":[59.50723,36.36821]}},{"type":"Feature","properties":{"name":"کوهسنگی","kind":"neighbourhood","rank":4},"geometry":{"type":"Point","coordinates":[59.56985,36.28458]}},{"type":"Feature","properties":{"name":"رضاشهر","kind":"neighbourhood","rank":4},"geometry":{"type":"Point","coordinates":[59.54102,36.29179]}},{"type":"Feature","properties":{"name":"کوی آلاله","kind":"neighbourhood","rank":4},"geometry":{"type":"Point","coordinates":[59.55158,36.34225]}},{"type":"Feature","properties":{"name":"آزادشهر","kind":"neighbourhood","rank":4},"geometry":{"type":"Point","coordinates":[59.53995,36.33113]}},{"type":"Feature","properties":{"name":"زیبا شهر","kind":"neighbourhood","rank":4},"geometry":{"type":"Point","coordinates":[59.53783,36.34101]}},{"type":"Feature","properties":{"name":"سجاد شهر","kind":"neighbourhood","rank":4},"geometry":{"type":"Point","coordinates":[59.55103,36.31845]}},{"type":"Feature","properties":{"name":"مهرآباد","kind":"neighbourhood","rank":4},"geometry":{"type":"Point","coordinates":[59.66145,36.2803]}},{"type":"Feature","properties":{"name":"شهرک بهارستان","kind":"neighbourhood","rank":4},"geometry":{"type":"Point","coordinates":[59.61019,36.22339]}},{"type":"Feature","properties":{"name":"ایوان","kind":"neighbourhood","rank":4},"geometry":{"type":"Point","coordinates":[59.65138,36.20021]}},{"type":"Feature","properties":{"name":"شهرک ابوذر","kind":"neighbourhood","rank":4},"geometry":{"type":"Point","coordinates":[59.61945,36.21397]}},{"type":"Feature","properties":{"name":"گلبهار","kind":"town","rank":2},"geometry":{"type":"Point","coordinates":[59.19663,36.57255]}},{"type":"Feature","properties":{"name":"نوفل لوشاتو","kind":"neighbourhood","rank":4},"geometry":{"type":"Point","coordinates":[59.54869,36.2941]}},{"type":"Feature","properties":{"name":"کوی ولیعصر","kind":"neighbourhood","rank":4},"geometry":{"type":"Point","coordinates":[59.59479,36.24013]}},{"type":"Feature","properties":{"name":"کوی سیدی","kind":"neighbourhood","rank":4},"geometry":{"type":"Point","coordinates":[59.61065,36.2432]}},{"type":"Feature","properties":{"name":"کوی المهدی","kind":"neighbourhood","rank":4},"geometry":{"type":"Point","coordinates":[59.59904,36.25069]}},{"type":"Feature","properties":{"name":"کوی پلیس","kind":"neighbourhood","rank":4},"geometry":{"type":"Point","coordinates":[59.60324,36.25511]}},{"type":"Feature","properties":{"name":"احمدآباد","kind":"village","rank":5},"geometry":{"type":"Point","coordinates":[59.88449,36.23257]}},{"type":"Feature","properties":{"name":"شهرک لشکر","kind":"neighbourhood","rank":4},"geometry":{"type":"Point","coordinates":[59.49196,36.36217]}},{"type":"Feature","properties":{"name":"آب و برق","kind":"neighbourhood","rank":4},"geometry":{"type":"Point","coordinates":[59.48359,36.31794]}},{"type":"Feature","properties":{"name":"شهرآرا","kind":"neighbourhood","rank":4},"geometry":{"type":"Point","coordinates":[59.46797,36.32303]}},{"type":"Feature","properties":{"name":"شهرک مطهری","kind":"neighbourhood","rank":4},"geometry":{"type":"Point","coordinates":[59.47693,36.35258]}},{"type":"Feature","properties":{"name":"الهیه","kind":"neighbourhood","rank":4},"geometry":{"type":"Point","coordinates":[59.47735,36.37443]}},{"type":"Feature","properties":{"name":"شهرک رازی","kind":"neighbourhood","rank":4},"geometry":{"type":"Point","coordinates":[59.53754,36.35748]}},{"type":"Feature","properties":{"name":"شاندیز","kind":"town","rank":2},"geometry":{"type":"Point","coordinates":[59.2986,36.39589]}},{"type":"Feature","properties":{"name":"تبادکان","kind":"village","rank":5},"geometry":{"type":"Point","coordinates":[59.90491,36.47743]}},{"type":"Feature","properties":{"name":"سیس آباد","kind":"neighbourhood","rank":4},"geometry":{"type":"Point","coordinates":[59.65393,36.33766]}},{"type":"Feature","properties":{"name":"شهرک شادیلون","kind":"neighbourhood","rank":4},"geometry":{"type":"Point","coordinates":[59.53151,36.28779]}},{"type":"Feature","properties":{"name":"شهرک نفت","kind":"neighbourhood","rank":4},"geometry":{"type":"Point","coordinates":[59.53255,36.29168]}},{"type":"Feature","properties":{"name":"چهارچشمه","kind":"neighbourhood","rank":4},"geometry":{"type":"Point","coordinates":[59.50125,36.30047]}},{"type":"Feature","properties":{"name":"شهرک پاچنار","kind":"neighbourhood","rank":4},"geometry":{"type":"Point","coordinates":[59.46588,36.32874]}},{"type":"Feature","properties":{"name":"نیروی هوایی","kind":"neighbourhood","rank":4},"geometry":{"type":"Point","coordinates":[59.48971,36.30525]}},{"type":"Feature","properties":{"name":"امیر","kind":"neighbourhood","rank":4},"geometry":{"type":"Point","coordinates":[59.58045,36.34148]}},{"type":"Feature","properties":{"name":"سمزقند","kind":"neighbourhood","rank":4},"geometry":{"type":"Point","coordinates":[59.61418,36.31647]}},{"type":"Feature","properties":{"name":"شهرک امام هادی","kind":"neighbourhood","rank":4},"geometry":{"type":"Point","coordinates":[59.54693,36.35908]}},{"type":"Feature","properties":{"name":"جاغرق","kind":"village","rank":5},"geometry":{"type":"Point","coordinates":[59.32211,36.31319]}},{"type":"Feature","properties":{"name":"گلستان","kind":"village","rank":5},"geometry":{"type":"Point","coordinates":[59.40738,36.31966]}},{"type":"Feature","properties":{"name":"ویلاشهر","kind":"village","rank":5},"geometry":{"type":"Point","coordinates":[59.43679,36.33608]}},{"type":"Feature","properties":{"name":"ازغد","kind":"village","rank":5},"geometry":{"type":"Point","coordinates":[59.33786,36.19978]}},{"type":"Feature","properties":{"name":"دیزباد بالا","kind":"village","rank":5},"geometry":{"type":"Point","coordinates":[59.28368,36.10121]}},{"type":"Feature","properties":{"name":"جیم آباد","kind":"village","rank":5},"geometry":{"type":"Point","coordinates":[59.76794,36.1055]}},{"type":"Feature","properties":{"name":"سالار آباد","kind":"village","rank":5},"geometry":{"type":"Point","coordinates":[59.76083,36.23171]}},{"type":"Feature","properties":{"name":"شهرک شهید باهنر","kind":"neighbourhood","rank":4},"geometry":{"type":"Point","coordinates":[59.71607,36.24985]}},{"type":"Feature","properties":{"name":"اسماعیل آباد","kind":"village","rank":5},"geometry":{"type":"Point","coordinates":[59.51051,36.42521]}},{"type":"Feature","properties":{"name":"قصر","kind":"village","rank":5},"geometry":{"type":"Point","coordinates":[59.69913,36.3821]}},{"type":"Feature","properties":{"name":"برقی","kind":"village","rank":5},"geometry":{"type":"Point","coordinates":[59.69105,36.39545]}},{"type":"Feature","properties":{"name":"قرقی علیا","kind":"village","rank":5},"geometry":{"type":"Point","coordinates":[59.67524,36.4089]}},{"type":"Feature","properties":{"name":"میر نبگش","kind":"village","rank":5},"geometry":{"type":"Point","coordinates":[59.84299,36.21239]}},{"type":"Feature","properties":{"name":"خادم آباد","kind":"village","rank":5},"geometry":{"type":"Point","coordinates":[59.80652,36.21722]}},{"type":"Feature","properties":{"name":"تنگل شور پائین","kind":"village","rank":5},"geometry":{"type":"Point","coordinates":[59.88975,36.21692]}},{"type":"Feature","properties":{"name":"زاک","kind":"village","rank":5},"geometry":{"type":"Point","coordinates":[59.55662,36.54083]}},{"type":"Feature","properties":{"name":"ماریان","kind":"village","rank":5},"geometry":{"type":"Point","coordinates":[59.5789,36.55025]}},{"type":"Feature","properties":{"name":"شر شر","kind":"village","rank":5},"geometry":{"type":"Point","coordinates":[59.85649,36.33955]}},{"type":"Feature","properties":{"name":"خیر آباد","kind":"village","rank":5},"geometry":{"type":"Point","coordinates":[59.8714,36.31432]}},{"type":"Feature","properties":{"name":"قاسم آباد","kind":"village","rank":5},"geometry":{"type":"Point","coordinates":[59.87826,36.299]}},{"type":"Feature","properties":{"name":"برزش آباد","kind":"village","rank":5},"geometry":{"type":"Point","coordinates":[59.76782,36.37098]}},{"type":"Feature","properties":{"name":"امرغان","kind":"village","rank":5},"geometry":{"type":"Point","coordinates":[59.76348,36.3432]}},{"type":"Feature","properties":{"name":"هلالی","kind":"village","rank":5},"geometry":{"type":"Point","coordinates":[59.77037,36.35033]}},{"type":"Feature","properties":{"name":"شترک","kind":"village","rank":5},"geometry":{"type":"Point","coordinates":[59.72372,36.3189]}},{"type":"Feature","properties":{"name":"رضویه","kind":"town","rank":2},"geometry":{"type":"Point","coordinates":[59.76983,36.20648]}},{"type":"Feature","properties":{"name":"درود","kind":"town","rank":2},"geometry":{"type":"Point","coordinates":[59.11621,36.13869]}},{"type":"Feature","properties":{"name":"بازه حوض بالا","kind":"village","rank":5},"geometry":{"type":"Point","coordinates":[59.55977,36.05509]}},{"type":"Feature","properties":{"name":"آغنج","kind":"village","rank":5},"geometry":{"type":"Point","coordinates":[59.55127,36.09488]}},{"type":"Feature","properties":{"name":"بزوشک","kind":"village","rank":5},"geometry":{"type":"Point","coordinates":[59.43398,36.07986]}},{"type":"Feature","properties":{"name":"مغان","kind":"village","rank":5},"geometry":{"type":"Point","coordinates":[59.37901,36.13732]}},{"type":"Feature","properties":{"name":"کوشان","kind":"village","rank":5},"geometry":{"type":"Point","coordinates":[59.14287,36.05798]}},{"type":"Feature","properties":{"name":"باغشن","kind":"village","rank":5},"geometry":{"type":"Point","coordinates":[59.10954,36.07754]}},{"type":"Feature","properties":{"name":"حریم آباد","kind":"village","rank":5},"geometry":{"type":"Point","coordinates":[59.11481,36.11016]}},{"type":"Feature","properties":{"name":"دانه کاشفیه","kind":"village","rank":5},"geometry":{"type":"Point","coordinates":[59.12549,36.0636]}},{"type":"Feature","properties":{"name":"بالندر","kind":"village","rank":5},"geometry":{"type":"Point","coordinates":[59.47401,36.1391]}},{"type":"Feature","properties":{"name":"عنبران","kind":"village","rank":5},"geometry":{"type":"Point","coordinates":[59.34671,36.3107]}},{"type":"Feature","properties":{"name":"زشک","kind":"village","rank":5},"geometry":{"type":"Point","coordinates":[59.19639,36.33581]}},{"type":"Feature","properties":{"name":"کنگ","kind":"village","rank":5},"geometry":{"type":"Point","coordinates":[59.22447,36.31988]}},{"type":"Feature","properties":{"name":"کاهو","kind":"village","rank":5},"geometry":{"type":"Point","coordinates":[59.20541,36.44355]}},{"type":"Feature","properties":{"name":"گلمکان","kind":"town","rank":2},"geometry":{"type":"Point","coordinates":[59.15953,36.48182]}},{"type":"Feature","properties":{"name":"اسجیل","kind":"village","rank":5},"geometry":{"type":"Point","coordinates":[59.15763,36.45159]}},{"type":"Feature","properties":{"name":"دولت آباد","kind":"village","rank":5},"geometry":{"type":"Point","coordinates":[59.16662,36.43715]}},{"type":"Feature","properties":{"name":"احمدآباد","kind":"village","rank":5},"geometry":{"type":"Point","coordinates":[59.21064,36.48434]}},{"type":"Feature","properties":{"name":"گراخک","kind":"village","rank":5},"geometry":{"type":"Point","coordinates":[59.24447,36.41597]}},{"type":"Feature","properties":{"name":"گوجگی","kind":"village","rank":5},"geometry":{"type":"Point","coordinates":[59.8324,36.58407]}},{"type":"Feature","properties":{"name":"فارمد","kind":"village","rank":5},"geometry":{"type":"Point","coordinates":[59.71312,36.44433]}},{"type":"Feature","properties":{"name":"ابرده علیا","kind":"village","rank":5},"geometry":{"type":"Point","coordinates":[59.26651,36.38721]}},{"type":"Feature","properties":{"name":"درخت بید","kind":"village","rank":5},"geometry":{"type":"Point","coordinates":[59.41947,36.3641]}},{"type":"Feature","properties":{"name":"حصار سرخ","kind":"village","rank":5},"geometry":{"type":"Point","coordinates":[59.33958,36.41287]}},{"type":"Feature","properties":{"name":"خادر","kind":"village","rank":5},"geometry":{"type":"Point","coordinates":[59.30062,36.38901]}},{"type":"Feature","properties":{"name":"چاهشک","kind":"village","rank":5},"geometry":{"type":"Point","coordinates":[59.45442,36.41355]}},{"type":"Feature","properties":{"name":"منزل آباد","kind":"village","rank":5},"geometry":{"type":"Point","coordinates":[59.46901,36.40461]}},{"type":"Feature","properties":{"name":"بازمرگان","kind":"village","rank":5},"geometry":{"type":"Point","coordinates":[59.40473,36.51604]}},{"type":"Feature","properties":{"name":"ناظریه","kind":"village","rank":5},"geometry":{"type":"Point","coordinates":[59.38591,36.47414]}},{"type":"Feature","properties":{"name":"ریحان","kind":"village","rank":5},"geometry":{"type":"Point","coordinates":[59.40647,36.52121]}},{"type":"Feature","properties":{"name":"شهرک مهرگان","kind":"neighbourhood","rank":4},"geometry":{"type":"Point","coordinates":[59.66948,36.40418]}},{"type":"Feature","properties":{"name":"کوی دروی","kind":"neighbourhood","rank":4},"geometry":{"type":"Point","coordinates":[59.64464,36.3214]}},{"type":"Feature","properties":{"name":"ملک آباد","kind":"neighbourhood","rank":4},"geometry":{"type":"Point","coordinates":[59.54883,36.3124]}},{"type":"Feature","properties":{"name":"آبکوه","kind":"neighbourhood","rank":4},"geometry":{"type":"Point","coordinates":[59.5695,36.30929]}},{"type":"Feature","properties":{"name":"رباط خاکستری","kind":"village","rank":5},"geometry":{"type":"Point","coordinates":[59.64946,36.10282]}},{"type":"Feature","properties":{"name":"قاسم آباد","kind":"neighbourhood","rank":4},"geometry":{"type":"Point","coordinates":[59.51424,36.36013]}},{"type":"Feature","properties":{"name":"جوادیه","kind":"village","rank":5},"geometry":{"type":"Point","coordinates":[59.4503,36.49532]}},{"type":"Feature","properties":{"name":"شمس آباد","kind":"village","rank":5},"geometry":{"type":"Point","coordinates":[59.46132,36.46129]}},{"type":"Feature","properties":{"name":"احمدآباد مقبل","kind":"village","rank":5},"geometry":{"type":"Point","coordinates":[59.44982,36.47929]}},{"type":"Feature","properties":{"name":"شاه راه علی آباد","kind":"village","rank":5},"geometry":{"type":"Point","coordinates":[59.4412,36.48849]}},{"type":"Feature","properties":{"name":"کلاته برفی","kind":"village","rank":5},"geometry":{"type":"Point","coordinates":[59.46751,36.45087]}},{"type":"Feature","properties":{"name":"منطقه ۳","kind":"suburb","rank":3},"geometry":{"type":"Point","coordinates":[59.63728,36.31811]}},{"type":"Feature","properties":{"name":"منطقه ۱","kind":"suburb","rank":3},"geometry":{"type":"Point","coordinates":[59.5749,36.30641]}},{"type":"Feature","properties":{"name":"منطقه ۴","kind":"suburb","rank":3},"geometry":{"type":"Point","coordinates":[59.658,36.3031]}},{"type":"Feature","properties":{"name":"منطقه ۲","kind":"suburb","rank":3},"geometry":{"type":"Point","coordinates":[59.58488,36.33727]}},{"type":"Feature","properties":{"name":"منطقه ۹","kind":"suburb","rank":3},"geometry":{"type":"Point","coordinates":[59.50585,36.30349]}},{"type":"Feature","properties":{"name":"منطقه ۸","kind":"suburb","rank":3},"geometry":{"type":"Point","coordinates":[59.58657,36.2795]}},{"type":"Feature","properties":{"name":"منطقه ۱۱","kind":"suburb","rank":3},"geometry":{"type":"Point","coordinates":[59.50895,36.33691]}},{"type":"Feature","properties":{"name":"منطقه ۷","kind":"suburb","rank":3},"geometry":{"type":"Point","coordinates":[59.61049,36.25174]}},{"type":"Feature","properties":{"name":"منطقه ۱۰","kind":"suburb","rank":3},"geometry":{"type":"Point","coordinates":[59.51897,36.3597]}},{"type":"Feature","properties":{"name":"منطقه ۵","kind":"suburb","rank":3},"geometry":{"type":"Point","coordinates":[59.65091,36.28556]}},{"type":"Feature","properties":{"name":"منطقه ۶","kind":"suburb","rank":3},"geometry":{"type":"Point","coordinates":[59.64545,36.26917]}},{"type":"Feature","properties":{"name":"اردمه","kind":"village","rank":5},"geometry":{"type":"Point","coordinates":[59.44172,36.14616]}},{"type":"Feature","properties":{"name":"تجر","kind":"village","rank":5},"geometry":{"type":"Point","coordinates":[59.39031,36.17329]}},{"type":"Feature","properties":{"name":"سربرج","kind":"village","rank":5},"geometry":{"type":"Point","coordinates":[59.42539,36.17504]}},{"type":"Feature","properties":{"name":"مج","kind":"village","rank":5},"geometry":{"type":"Point","coordinates":[59.364,36.17475]}},{"type":"Feature","properties":{"name":"پیوه ژن","kind":"village","rank":5},"geometry":{"type":"Point","coordinates":[59.34748,36.05843]}},{"type":"Feature","properties":{"name":"بش ساروق","kind":"village","rank":5},"geometry":{"type":"Point","coordinates":[59.61727,36.16089]}},{"type":"Feature","properties":{"name":"شهرک قائم","kind":"village","rank":5},"geometry":{"type":"Point","coordinates":[59.83599,36.13705]}},{"type":"Feature","properties":{"name":"جعفرآباد","kind":"village","rank":5},"geometry":{"type":"Point","coordinates":[59.12105,36.13579]}},{"type":"Feature","properties":{"name":"چناران","kind":"village","rank":5},"geometry":{"type":"Point","coordinates":[59.17328,36.10376]}},{"type":"Feature","properties":{"name":"گرینه","kind":"village","rank":5},"geometry":{"type":"Point","coordinates":[59.15592,36.11108]}},{"type":"Feature","properties":{"name":"امین آباد","kind":"village","rank":5},"geometry":{"type":"Point","coordinates":[59.48856,36.42441]}},{"type":"Feature","properties":{"name":"برگ","kind":"village","rank":5},"geometry":{"type":"Point","coordinates":[59.49112,36.55205]}},{"type":"Feature","properties":{"name":"توپدرخت","kind":"village","rank":5},"geometry":{"type":"Point","coordinates":[59.35508,36.54667]}},{"type":"Feature","properties":{"name":"جلالی","kind":"village","rank":5},"geometry":{"type":"Point","coordinates":[59.32418,36.55036]}},{"type":"Feature","properties":{"name":"جمع اب","kind":"village","rank":5},"geometry":{"type":"Point","coordinates":[59.10305,36.57175]}},{"type":"Feature","properties":{"name":"حاجی آباد","kind":"village","rank":5},"geometry":{"type":"Point","coordinates":[59.47827,36.44618]}},{"type":"Feature","properties":{"name":"حسن آباد گرجی","kind":"village","rank":5},"geometry":{"type":"Point","coordinates":[59.432,36.49585]}},{"type":"Feature","properties":{"name":"خان سعادت","kind":"village","rank":5},"geometry":{"type":"Point","coordinates":[59.36261,36.51428]}},{"type":"Feature","properties":{"name":"امینیه","kind":"village","rank":5},"geometry":{"type":"Point","coordinates":[59.35213,36.50474]}},{"type":"Feature","properties":{"name":"خیرآباد","kind":"village","rank":5},"geometry":{"type":"Point","coordinates":[59.22102,36.51845]}},{"type":"Feature","properties":{"name":"دهشک","kind":"village","rank":5},"geometry":{"type":"Point","coordinates":[59.47589,36.50121]}},{"type":"Feature","properties":{"name":"دولخان","kind":"village","rank":5},"geometry":{"type":"Point","coordinates":[59.29872,36.58482]}},{"type":"Feature","properties":{"name":"دوین","kind":"village","rank":5},"geometry":{"type":"Point","coordinates":[59.34178,36.53641]}},{"type":"Feature","properties":{"name":"روح آباد","kind":"village","rank":5},"geometry":{"type":"Point","coordinates":[59.40967,36.46653]}},{"type":"Feature","properties":{"name":"ساغروان","kind":"village","rank":5},"geometry":{"type":"Point","coordinates":[59.32908,36.52017]}},{"type":"Feature","properties":{"name":"سروآباد","kind":"village","rank":5},"geometry":{"type":"Point","coordinates":[59.39059,36.51699]}},{"type":"Feature","properties":{"name":"سعیدآباد","kind":"village","rank":5},"geometry":{"type":"Point","coordinates":[59.43254,36.61671]}},{"type":"Feature","properties":{"name":"سلطان آباد","kind":"village","rank":5},"geometry":{"type":"Point","coordinates":[59.28596,36.55104]}},{"type":"Feature","properties":{"name":"سلوگرد","kind":"village","rank":5},"geometry":{"type":"Point","coordinates":[59.234,36.57144]}},{"type":"Feature","properties":{"name":"سنگ سفید","kind":"village","rank":5},"geometry":{"type":"Point","coordinates":[59.20274,36.52566]}},{"type":"Feature","properties":{"name":"سنگ سیاه","kind":"village","rank":5},"geometry":{"type":"Point","coordinates":[59.39076,36.52282]}},{"type":"Feature","properties":{"name":"سهل الدین","kind":"village","rank":5},"geometry":{"type":"Point","coordinates":[59.4461,36.51878]}},{"type":"Feature","properties":{"name":"شاه تقی","kind":"village","rank":5},"geometry":{"type":"Point","coordinates":[59.51094,36.57344]}},{"type":"Feature","properties":{"name":"شاه فیل","kind":"village","rank":5},"geometry":{"type":"Point","coordinates":[59.46852,36.47013]}},{"type":"Feature","properties":{"name":"شاهین قلعه","kind":"village","rank":5},"geometry":{"type":"Point","coordinates":[59.37065,36.50865]}},{"type":"Feature","properties":{"name":"شهرک شهید هاشمی نژاد","kind":"village","rank":5},"geometry":{"type":"Point","coordinates":[59.49932,36.47114]}},{"type":"Feature","properties":{"name":"شیرحصار","kind":"village","rank":5},"geometry":{"type":"Point","coordinates":[59.38883,36.57635]}},{"type":"Feature","properties":{"name":"توس علیا","kind":"village","rank":5},"geometry":{"type":"Point","coordinates":[59.50301,36.48015]}},{"type":"Feature","properties":{"name":"عباس آباد","kind":"village","rank":5},"geometry":{"type":"Point","coordinates":[59.42039,36.57127]}},{"type":"Feature","properties":{"name":"عبدل آباد","kind":"village","rank":5},"geometry":{"type":"Point","coordinates":[59.27836,36.54221]}},{"type":"Feature","properties":{"name":"عسکریه","kind":"village","rank":5},"geometry":{"type":"Point","coordinates":[59.38186,36.49948]}},{"type":"Feature","properties":{"name":"عشق آباد","kind":"village","rank":5},"geometry":{"type":"Point","coordinates":[59.42257,36.49355]}},{"type":"Feature","properties":{"name":"فتح آباد","kind":"village","rank":5},"geometry":{"type":"Point","coordinates":[59.25266,36.58067]}},{"type":"Feature","properties":{"name":"فخرآباد","kind":"village","rank":5},"geometry":{"type":"Point","coordinates":[59.47019,36.58226]}},{"type":"Feature","properties":{"name":"فیلیان حضرتی","kind":"village","rank":5},"geometry":{"type":"Point","coordinates":[59.42788,36.52715]}},{"type":"Feature","properties":{"name":"فیلیان قائم مقام","kind":"village","rank":5},"geometry":{"type":"Point","coordinates":[59.42308,36.52595]}},{"type":"Feature","properties":{"name":"قره جنگل","kind":"village","rank":5},"geometry":{"type":"Point","coordinates":[59.33328,36.58768]}},{"type":"Feature","properties":{"name":"قلعه نوولی آباد","kind":"village","rank":5},"geometry":{"type":"Point","coordinates":[59.48545,36.5885]}},{"type":"Feature","properties":{"name":"محسن آباد","kind":"village","rank":5},"geometry":{"type":"Point","coordinates":[59.24305,36.58741]}},{"type":"Feature","properties":{"name":"محمدآباد ایلخانی","kind":"village","rank":5},"geometry":{"type":"Point","coordinates":[59.46359,36.48536]}},{"type":"Feature","properties":{"name":"مهرآباد","kind":"village","rank":5},"geometry":{"type":"Point","coordinates":[59.46022,36.54492]}},{"type":"Feature","properties":{"name":"مهرآباد","kind":"village","rank":5},"geometry":{"type":"Point","coordinates":[59.30876,36.58851]}},{"type":"Feature","properties":{"name":"پایین ده","kind":"village","rank":5},"geometry":{"type":"Point","coordinates":[59.36514,36.52315]}},{"type":"Feature","properties":{"name":"پری آباد","kind":"village","rank":5},"geometry":{"type":"Point","coordinates":[59.36612,36.59136]}},{"type":"Feature","properties":{"name":"چاه ملا","kind":"village","rank":5},"geometry":{"type":"Point","coordinates":[59.34122,36.55073]}},{"type":"Feature","properties":{"name":"چشمه گیلاس","kind":"village","rank":5},"geometry":{"type":"Point","coordinates":[59.33994,36.61029]}},{"type":"Feature","properties":{"name":"چنار سوخته","kind":"village","rank":5},"geometry":{"type":"Point","coordinates":[59.33684,36.53175]}},{"type":"Feature","properties":{"name":"چهار برج","kind":"village","rank":5},"geometry":{"type":"Point","coordinates":[59.48373,36.45901]}},{"type":"Feature","properties":{"name":"چهچه","kind":"village","rank":5},"geometry":{"type":"Point","coordinates":[59.36996,36.53175]}},{"type":"Feature","properties":{"name":"کلوخان","kind":"village","rank":5},"geometry":{"type":"Point","coordinates":[59.48774,36.60243]}},{"type":"Feature","properties":{"name":"کورده","kind":"village","rank":5},"geometry":{"type":"Point","coordinates":[59.33621,36.51573]}},{"type":"Feature","properties":{"name":"گاوطرنا","kind":"village","rank":5},"geometry":{"type":"Point","coordinates":[59.23753,36.54012]}},{"type":"Feature","properties":{"name":"گجوان","kind":"village","rank":5},"geometry":{"type":"Point","coordinates":[59.51469,36.57844]}},{"type":"Feature","properties":{"name":"گرمه","kind":"village","rank":5},"geometry":{"type":"Point","coordinates":[59.46562,36.5135]}},{"type":"Feature","properties":{"name":"گوارشک","kind":"village","rank":5},"geometry":{"type":"Point","coordinates":[59.50348,36.57052]}},{"type":"Feature","properties":{"name":"ابراهیم آباد","kind":"village","rank":5},"geometry":{"type":"Point","coordinates":[59.94877,36.31985]}},{"type":"Feature","properties":{"name":"احمدآباد","kind":"village","rank":5},"geometry":{"type":"Point","coordinates":[59.87579,36.42517]}},{"type":"Feature","properties":{"name":"اخنگان","kind":"village","rank":5},"geometry":{"type":"Point","coordinates":[59.61802,36.52108]}},{"type":"Feature","properties":{"name":"اسفندیان","kind":"village","rank":5},"geometry":{"type":"Point","coordinates":[59.52646,36.47393]}},{"type":"Feature","properties":{"name":"امیرآباد","kind":"village","rank":5},"geometry":{"type":"Point","coordinates":[59.51638,36.40471]}},{"type":"Feature","properties":{"name":"اندرخ","kind":"village","rank":5},"geometry":{"type":"Point","coordinates":[59.65896,36.58185]}},{"type":"Feature","properties":{"name":"اکبرآباد","kind":"village","rank":5},"geometry":{"type":"Point","coordinates":[59.46008,36.43294]}},{"type":"Feature","properties":{"name":"بازحوض سفلی","kind":"village","rank":5},"geometry":{"type":"Point","coordinates":[59.74691,36.08207]}},{"type":"Feature","properties":{"name":"بازه","kind":"village","rank":5},"geometry":{"type":"Point","coordinates":[59.22912,36.6019]}},{"type":"Feature","properties":{"name":"باغ فراگرد","kind":"village","rank":5},"geometry":{"type":"Point","coordinates":[59.62579,36.41632]}},{"type":"Feature","properties":{"name":"باغون آباد","kind":"village","rank":5},"geometry":{"type":"Point","coordinates":[59.48795,36.40716]}},{"type":"Feature","properties":{"name":"برج آباد","kind":"village","rank":5},"geometry":{"type":"Point","coordinates":[59.74201,36.37436]}},{"type":"Feature","properties":{"name":"بهار","kind":"village","rank":5},"geometry":{"type":"Point","coordinates":[59.60845,36.404]}},{"type":"Feature","properties":{"name":"تپه سلام","kind":"village","rank":5},"geometry":{"type":"Point","coordinates":[59.7221,36.13796]}},{"type":"Feature","properties":{"name":"جغری","kind":"village","rank":5},"geometry":{"type":"Point","coordinates":[59.87278,36.49584]}},{"type":"Feature","properties":{"name":"جهیزخانه","kind":"village","rank":5},"geometry":{"type":"Point","coordinates":[59.67757,36.4905]}},{"type":"Feature","properties":{"name":"حسن خردو","kind":"village","rank":5},"geometry":{"type":"Point","coordinates":[59.50237,36.44215]}},{"type":"Feature","properties":{"name":"حسن شهاب حسن شقا","kind":"village","rank":5},"geometry":{"type":"Point","coordinates":[59.59371,36.39677]}},{"type":"Feature","properties":{"name":"حسین آباد جلدک","kind":"village","rank":5},"geometry":{"type":"Point","coordinates":[59.43757,36.35489]}},{"type":"Feature","properties":{"name":"حسین آباد قرقی","kind":"village","rank":5},"geometry":{"type":"Point","coordinates":[59.67691,36.39817]}},{"type":"Feature","properties":{"name":"حسین نجو","kind":"village","rank":5},"geometry":{"type":"Point","coordinates":[59.19475,36.61966]}},{"type":"Feature","properties":{"name":"خرق","kind":"village","rank":5},"geometry":{"type":"Point","coordinates":[59.59005,36.54465]}},{"type":"Feature","properties":{"name":"خرم آباد","kind":"village","rank":5},"geometry":{"type":"Point","coordinates":[59.62225,36.41008]}},{"type":"Feature","properties":{"name":"خلج","kind":"village","rank":5},"geometry":{"type":"Point","coordinates":[59.57629,36.22484]}},{"type":"Feature","properties":{"name":"خلق آباد سفلی","kind":"village","rank":5},"geometry":{"type":"Point","coordinates":[59.63373,36.39347]}},{"type":"Feature","properties":{"name":"خوش هوا","kind":"village","rank":5},"geometry":{"type":"Point","coordinates":[59.62305,36.50635]}},{"type":"Feature","properties":{"name":"خیج","kind":"village","rank":5},"geometry":{"type":"Point","coordinates":[59.10756,36.55554]}},{"type":"Feature","properties":{"name":"شهرک امام سجاد","kind":"village","rank":5},"geometry":{"type":"Point","coordinates":[59.60524,36.36581]}},{"type":"Feature","properties":{"name":"خین چماقی","kind":"village","rank":5},"geometry":{"type":"Point","coordinates":[59.52913,36.42694]}},{"type":"Feature","properties":{"name":"درابد امام","kind":"village","rank":5},"geometry":{"type":"Point","coordinates":[59.65144,36.41653]}},{"type":"Feature","properties":{"name":"دزغان","kind":"village","rank":5},"geometry":{"type":"Point","coordinates":[59.7049,36.36068]}},{"type":"Feature","properties":{"name":"ده غیبی","kind":"village","rank":5},"geometry":{"type":"Point","coordinates":[59.60596,36.17403]}},{"type":"Feature","properties":{"name":"دوست آباد","kind":"village","rank":5},"geometry":{"type":"Point","coordinates":[59.48767,36.4181]}},{"type":"Feature","properties":{"name":"رضوان","kind":"village","rank":5},"geometry":{"type":"Point","coordinates":[59.6456,36.55274]}},{"type":"Feature","properties":{"name":"رضویه قلعه سیاه","kind":"village","rank":5},"geometry":{"type":"Point","coordinates":[59.41141,36.48318]}},{"type":"Feature","properties":{"name":"زرکش","kind":"village","rank":5},"geometry":{"type":"Point","coordinates":[59.49619,36.41027]}},{"type":"Feature","properties":{"name":"زین الدین","kind":"village","rank":5},"geometry":{"type":"Point","coordinates":[59.69817,36.3315]}},{"type":"Feature","properties":{"name":"سراسیاب","kind":"village","rank":5},"geometry":{"type":"Point","coordinates":[59.33531,36.39847]}},{"type":"Feature","properties":{"name":"سنگبر","kind":"village","rank":5},"geometry":{"type":"Point","coordinates":[59.77061,36.29938]}},{"type":"Feature","properties":{"name":"شایه","kind":"village","rank":5},"geometry":{"type":"Point","coordinates":[59.6445,36.38457]}},{"type":"Feature","properties":{"name":"شلنگرد","kind":"village","rank":5},"geometry":{"type":"Point","coordinates":[59.25677,36.60861]}},{"type":"Feature","properties":{"name":"شهید کامجو","kind":"village","rank":5},"geometry":{"type":"Point","coordinates":[59.63901,36.38662]}},{"type":"Feature","properties":{"name":"شیرحصار","kind":"village","rank":5},"geometry":{"type":"Point","coordinates":[59.70592,36.33394]}},{"type":"Feature","properties":{"name":"صیدآباد","kind":"village","rank":5},"geometry":{"type":"Point","coordinates":[59.52125,36.41059]}},{"type":"Feature","properties":{"name":"عوض","kind":"village","rank":5},"geometry":{"type":"Point","coordinates":[59.63572,36.36235]}},{"type":"Feature","properties":{"name":"عیش آباد","kind":"village","rank":5},"geometry":{"type":"Point","coordinates":[59.1744,36.48841]}},{"type":"Feature","properties":{"name":"پاژ","kind":"village","rank":5},"geometry":{"type":"Point","coordinates":[59.67222,36.47525]}},{"type":"Feature","properties":{"name":"فرح آباد","kind":"village","rank":5},"geometry":{"type":"Point","coordinates":[59.36678,36.44621]}},{"type":"Feature","properties":{"name":"فرخد","kind":"village","rank":5},"geometry":{"type":"Point","coordinates":[59.64846,36.4262]}},{"type":"Feature","properties":{"name":"شهرک امام رضا","kind":"village","rank":5},"geometry":{"type":"Point","coordinates":[59.59219,36.37499]}},{"type":"Feature","properties":{"name":"قرقی سفلی","kind":"village","rank":5},"geometry":{"type":"Point","coordinates":[59.67436,36.38853]}},{"type":"Feature","properties":{"name":"قره کوسه","kind":"village","rank":5},"geometry":{"type":"Point","coordinates":[59.22671,36.61866]}},{"type":"Feature","properties":{"name":"قشق آباد","kind":"village","rank":5},"geometry":{"type":"Point","coordinates":[59.20653,36.6041]}},{"type":"Feature","properties":{"name":"قشلاق","kind":"village","rank":5},"geometry":{"type":"Point","coordinates":[59.70272,36.07813]}},{"type":"Feature","properties":{"name":"قلعه نو اندرخ","kind":"village","rank":5},"geometry":{"type":"Point","coordinates":[59.64597,36.55823]}},{"type":"Feature","properties":{"name":"قلعه نوکاهو","kind":"village","rank":5},"geometry":{"type":"Point","coordinates":[59.24111,36.46807]}},{"type":"Feature","properties":{"name":"قیاس آباد علیا","kind":"village","rank":5},"geometry":{"type":"Point","coordinates":[59.79254,36.28453]}},{"type":"Feature","properties":{"name":"لقمانی","kind":"village","rank":5},"geometry":{"type":"Point","coordinates":[59.5358,36.44635]}},{"type":"Feature","properties":{"name":"مایان سفلی","kind":"village","rank":5},"geometry":{"type":"Point","coordinates":[59.40578,36.25458]}},{"type":"Feature","properties":{"name":"مایان علیا","kind":"village","rank":5},"geometry":{"type":"Point","coordinates":[59.37247,36.21655]}},{"type":"Feature","properties":{"name":"مایان وسطی","kind":"village","rank":5},"geometry":{"type":"Point","coordinates":[59.39601,36.24564]}},{"type":"Feature","properties":{"name":"زشک سفلی","kind":"village","rank":5},"geometry":{"type":"Point","coordinates":[59.14963,36.37939]}},{"type":"Feature","properties":{"name":"مردار کشان","kind":"village","rank":5},"geometry":{"type":"Point","coordinates":[59.50511,36.46263]}},{"type":"Feature","properties":{"name":"معین آباد بالا","kind":"village","rank":5},"geometry":{"type":"Point","coordinates":[59.65067,36.52029]}},{"type":"Feature","properties":{"name":"معین آباد پایین","kind":"village","rank":5},"geometry":{"type":"Point","coordinates":[59.66019,36.51147]}},{"type":"Feature","properties":{"name":"مهدی آباد","kind":"neighbourhood","rank":4},"geometry":{"type":"Point","coordinates":[59.69572,36.27705]}},{"type":"Feature","properties":{"name":"ناظرآباد","kind":"village","rank":5},"geometry":{"type":"Point","coordinates":[59.49227,36.43503]}},{"type":"Feature","properties":{"name":"نوبهار","kind":"village","rank":5},"geometry":{"type":"Point","coordinates":[59.21779,36.58887]}},{"type":"Feature","properties":{"name":"نوچاه","kind":"village","rank":5},"geometry":{"type":"Point","coordinates":[59.42565,36.34181]}},{"type":"Feature","properties":{"name":"پاوا","kind":"village","rank":5},"geometry":{"type":"Point","coordinates":[59.70033,36.30028]}},{"type":"Feature","properties":{"name":"چایدره","kind":"village","rank":5},"geometry":{"type":"Point","coordinates":[59.61972,36.53218]}},{"type":"Feature","properties":{"name":"چنار","kind":"village","rank":5},"geometry":{"type":"Point","coordinates":[59.1179,36.47108]}},{"type":"Feature","properties":{"name":"چهل حجره","kind":"village","rank":5},"geometry":{"type":"Point","coordinates":[59.51068,36.40482]}},{"type":"Feature","properties":{"name":"کاظم آباد","kind":"village","rank":5},"geometry":{"type":"Point","coordinates":[59.47459,36.43015]}},{"type":"Feature","properties":{"name":"کاظم آباد پنجشنبه","kind":"village","rank":5},"geometry":{"type":"Point","coordinates":[59.63485,36.37057]}},{"type":"Feature","properties":{"name":"کشف","kind":"village","rank":5},"geometry":{"type":"Point","coordinates":[59.57865,36.37041]}},{"type":"Feature","properties":{"name":"کلاته ابراهیم آباد","kind":"village","rank":5},"geometry":{"type":"Point","coordinates":[59.28847,36.4175]}},{"type":"Feature","properties":{"name":"کلاته آهن","kind":"village","rank":5},"geometry":{"type":"Point","coordinates":[59.33643,36.26773]}},{"type":"Feature","properties":{"name":"کلاته درخت بید","kind":"village","rank":5},"geometry":{"type":"Point","coordinates":[59.40945,36.35872]}},{"type":"Feature","properties":{"name":"کلاته شیخها","kind":"village","rank":5},"geometry":{"type":"Point","coordinates":[59.19702,36.60253]}},{"type":"Feature","properties":{"name":"کلاته نوری","kind":"village","rank":5},"geometry":{"type":"Point","coordinates":[59.57837,36.39513]}},{"type":"Feature","properties":{"name":"کوشک مهدی","kind":"village","rank":5},"geometry":{"type":"Point","coordinates":[59.56497,36.39031]}},{"type":"Feature","properties":{"name":"کوشکان","kind":"village","rank":5},"geometry":{"type":"Point","coordinates":[59.18574,36.48402]}},{"type":"Feature","properties":{"name":"گرجی علیا","kind":"village","rank":5},"geometry":{"type":"Point","coordinates":[59.64501,36.36495]}},{"type":"Feature","properties":{"name":"گزی","kind":"village","rank":5},"geometry":{"type":"Point","coordinates":[59.60399,36.38439]}},{"type":"Feature","properties":{"name":"گل ازقند","kind":"village","rank":5},"geometry":{"type":"Point","coordinates":[59.61416,36.58602]}},{"type":"Feature","properties":{"name":"گوندوک","kind":"village","rank":5},"geometry":{"type":"Point","coordinates":[59.67865,36.34241]}},{"type":"Feature","properties":{"name":"جوپایین","kind":"village","rank":5},"geometry":{"type":"Point","coordinates":[59.29725,36.61173]}},{"type":"Feature","properties":{"name":"دهبار","kind":"village","rank":5},"geometry":{"type":"Point","coordinates":[59.28872,36.25155]}},{"type":"Feature","properties":{"name":"دهسرخ","kind":"village","rank":5},"geometry":{"type":"Point","coordinates":[59.73295,36.56101]}},{"type":"Feature","properties":{"name":"شبانکاره","kind":"village","rank":5},"geometry":{"type":"Point","coordinates":[59.55136,36.42394]}},{"type":"Feature","properties":{"name":"قاسم آباد","kind":"village","rank":5},"geometry":{"type":"Point","coordinates":[59.29445,36.05183]}},{"type":"Feature","properties":{"name":"مجدآباد","kind":"village","rank":5},"geometry":{"type":"Point","coordinates":[59.11707,36.12164]}},{"type":"Feature","properties":{"name":"پرکندآباد","kind":"village","rank":5},"geometry":{"type":"Point","coordinates":[59.55534,36.40304]}},{"type":"Feature","properties":{"name":"چمله","kind":"village","rank":5},"geometry":{"type":"Point","coordinates":[59.29566,36.61053]}},{"type":"Feature","properties":{"name":"کال زرکش","kind":"village","rank":5},"geometry":{"type":"Point","coordinates":[59.50366,36.39991]}},{"type":"Feature","properties":{"name":"کلاته تلکی","kind":"village","rank":5},"geometry":{"type":"Point","coordinates":[59.29291,36.60519]}},{"type":"Feature","properties":{"name":"خانرود","kind":"village","rank":5},"geometry":{"type":"Point","coordinates":[59.40332,36.1395]}},{"type":"Feature","properties":{"name":"قادر آباد","kind":"village","rank":5},"geometry":{"type":"Point","coordinates":[59.44026,36.50373]}},{"type":"Feature","properties":{"name":"مجتمع مسکونی تجاری آرمس","kind":"neighbourhood","rank":4},"geometry":{"type":"Point","coordinates":[59.46488,36.36464]}},{"type":"Feature","properties":{"name":"شهرک ولیعصر شاندیز","kind":"neighbourhood","rank":4},"geometry":{"type":"Point","coordinates":[59.31734,36.40753]}},{"type":"Feature","properties":{"name":"طرقدر","kind":"village","rank":5},"geometry":{"type":"Point","coordinates":[59.35718,36.30594]}},{"type":"Feature","properties":{"name":"شهرک فرهنگیان","kind":"neighbourhood","rank":4},"geometry":{"type":"Point","coordinates":[59.36238,36.31853]}},{"type":"Feature","properties":{"name":"مجتمع فجر۴","kind":"neighbourhood","rank":4},"geometry":{"type":"Point","coordinates":[59.49354,36.34751]}},{"type":"Feature","properties":{"name":"مجتمع مسکونی آبی و قرمز","kind":"neighbourhood","rank":4},"geometry":{"type":"Point","coordinates":[59.50961,36.37477]}},{"type":"Feature","properties":{"name":"مجتمع مسکونی آثار طوس","kind":"neighbourhood","rank":4},"geometry":{"type":"Point","coordinates":[59.46578,36.36536]}},{"type":"Feature","properties":{"name":"مجتمع مسکونی میثاق","kind":"neighbourhood","rank":4},"geometry":{"type":"Point","coordinates":[59.51121,36.37764]}},{"type":"Feature","properties":{"name":"جاهد شهر","kind":"neighbourhood","rank":4},"geometry":{"type":"Point","coordinates":[59.46809,36.36117]}},{"type":"Feature","properties":{"name":"مجتمع مسکونی ولیعصر","kind":"neighbourhood","rank":4},"geometry":{"type":"Point","coordinates":[59.46862,36.32068]}},{"type":"Feature","properties":{"name":"فلسطین","kind":"neighbourhood","rank":4},"geometry":{"type":"Point","coordinates":[59.56228,36.3071]}},{"type":"Feature","properties":{"name":"احمد آباد","kind":"neighbourhood","rank":4},"geometry":{"type":"Point","coordinates":[59.57089,36.29176]}},{"type":"Feature","properties":{"name":"راهنمایی","kind":"neighbourhood","rank":4},"geometry":{"type":"Point","coordinates":[59.57024,36.30172]}},{"type":"Feature","properties":{"name":"بهشت","kind":"neighbourhood","rank":4},"geometry":{"type":"Point","coordinates":[59.58063,36.29738]}},{"type":"Feature","properties":{"name":"سعد آباد","kind":"neighbourhood","rank":4},"geometry":{"type":"Point","coordinates":[59.593,36.30488]}},{"type":"Feature","properties":{"name":"کلاهدوز","kind":"neighbourhood","rank":4},"geometry":{"type":"Point","coordinates":[59.58371,36.3084]}},{"type":"Feature","properties":{"name":"گوهرشاد","kind":"neighbourhood","rank":4},"geometry":{"type":"Point","coordinates":[59.57845,36.31268]}},{"type":"Feature","properties":{"name":"ارشاد","kind":"neighbourhood","rank":4},"geometry":{"type":"Point","coordinates":[59.57071,36.3171]}},{"type":"Feature","properties":{"name":"وحدت","kind":"neighbourhood","rank":4},"geometry":{"type":"Point","coordinates":[59.60486,36.36086]}},{"type":"Feature","properties":{"name":"فدک","kind":"neighbourhood","rank":4},"geometry":{"type":"Point","coordinates":[59.57291,36.34728]}},{"type":"Feature","properties":{"name":"بهاران","kind":"neighbourhood","rank":4},"geometry":{"type":"Point","coordinates":[59.55818,36.34599]}},{"type":"Feature","properties":{"name":"جانباز","kind":"neighbourhood","rank":4},"geometry":{"type":"Point","coordinates":[59.56094,36.33175]}},{"type":"Feature","properties":{"name":"شهید فرامرز عباسی","kind":"neighbourhood","rank":4},"geometry":{"type":"Point","coordinates":[59.54992,36.33229]}},{"type":"Feature","properties":{"name":"هدایت","kind":"neighbourhood","rank":4},"geometry":{"type":"Point","coordinates":[59.59902,36.33549]}},{"type":"Feature","properties":{"name":"قائم","kind":"neighbourhood","rank":4},"geometry":{"type":"Point","coordinates":[59.58414,36.33295]}},{"type":"Feature","properties":{"name":"ایثارگران","kind":"neighbourhood","rank":4},"geometry":{"type":"Point","coordinates":[59.61052,36.33047]}},{"type":"Feature","properties":{"name":"عامل","kind":"neighbourhood","rank":4},"geometry":{"type":"Point","coordinates":[59.5962,36.3093]}},{"type":"Feature","properties":{"name":"شفا","kind":"neighbourhood","rank":4},"geometry":{"type":"Point","coordinates":[59.61181,36.32722]}},{"type":"Feature","properties":{"name":"شهید مطهری","kind":"neighbourhood","rank":4},"geometry":{"type":"Point","coordinates":[59.59976,36.31552]}},{"type":"Feature","properties":{"name":"آیت الله عبادی","kind":"neighbourhood","rank":4},"geometry":{"type":"Point","coordinates":[59.60602,36.3108]}},{"type":"Feature","properties":{"name":"هنرور","kind":"neighbourhood","rank":4},"geometry":{"type":"Point","coordinates":[59.60655,36.32342]}},{"type":"Feature","properties":{"name":"شهید بصیر","kind":"neighbourhood","rank":4},"geometry":{"type":"Point","coordinates":[59.52219,36.3936]}},{"type":"Feature","properties":{"name":"شهرک مطهری","kind":"neighbourhood","rank":4},"geometry":{"type":"Point","coordinates":[59.52794,36.3894]}},{"type":"Feature","properties":{"name":"مشهدقلی","kind":"neighbourhood","rank":4},"geometry":{"type":"Point","coordinates":[59.53053,36.38704]}},{"type":"Feature","properties":{"name":"توس","kind":"neighbourhood","rank":4},"geometry":{"type":"Point","coordinates":[59.53392,36.38405]}},{"type":"Feature","properties":{"name":"مهدی آباد","kind":"neighbourhood","rank":4},"geometry":{"type":"Point","coordinates":[59.55126,36.36722]}},{"type":"Feature","properties":{"name":"حضرت حجت","kind":"neighbourhood","rank":4},"geometry":{"type":"Point","coordinates":[59.55964,36.36331]}},{"type":"Feature","properties":{"name":"شهرک نوید","kind":"neighbourhood","rank":4},"geometry":{"type":"Point","coordinates":[59.56758,36.35168]}},{"type":"Feature","properties":{"name":"گاز","kind":"neighbourhood","rank":4},"geometry":{"type":"Point","coordinates":[59.63057,36.31957]}},{"type":"Feature","properties":{"name":"رسالت","kind":"neighbourhood","rank":4},"geometry":{"type":"Point","coordinates":[59.64304,36.3127]}},{"type":"Feature","properties":{"name":"راه آهن","kind":"neighbourhood","rank":4},"geometry":{"type":"Point","coordinates":[59.62254,36.30579]}},{"type":"Feature","properties":{"name":"شهید هاشمی نژاد","kind":"neighbourhood","rank":4},"geometry":{"type":"Point","coordinates":[59.61338,36.30024]}},{"type":"Feature","properties":{"name":"فاطمیه","kind":"neighbourhood","rank":4},"geometry":{"type":"Point","coordinates":[59.62595,36.31454]}},{"type":"Feature","properties":{"name":"بلال","kind":"neighbourhood","rank":4},"geometry":{"type":"Point","coordinates":[59.62885,36.32843]}},{"type":"Feature","properties":{"name":"طبرسی شمالی","kind":"neighbourhood","rank":4},"geometry":{"type":"Point","coordinates":[59.66849,36.32711]}},{"type":"Feature","properties":{"name":"خواجه ربیع","kind":"neighbourhood","rank":4},"geometry":{"type":"Point","coordinates":[59.62802,36.33948]}},{"type":"Feature","properties":{"name":"بهمن","kind":"neighbourhood","rank":4},"geometry":{"type":"Point","coordinates":[59.62206,36.3451]}},{"type":"Feature","properties":{"name":"شهید شهریاری","kind":"neighbourhood","rank":4},"geometry":{"type":"Point","coordinates":[59.67602,36.40011]}},{"type":"Feature","properties":{"name":"تلگرد","kind":"neighbourhood","rank":4},"geometry":{"type":"Point","coordinates":[59.65778,36.29986]}},{"type":"Feature","properties":{"name":"گلشور","kind":"neighbourhood","rank":4},"geometry":{"type":"Point","coordinates":[59.65268,36.29399]}},{"type":"Feature","properties":{"name":"ایثار","kind":"neighbourhood","rank":4},"geometry":{"type":"Point","coordinates":[59.64042,36.29562]}},{"type":"Feature","properties":{"name":"ابوذر","kind":"neighbourhood","rank":4},"geometry":{"type":"Point","coordinates":[59.65177,36.30762]}},{"type":"Feature","properties":{"name":"وحید","kind":"neighbourhood","rank":4},"geometry":{"type":"Point","coordinates":[59.65499,36.30441]}},{"type":"Feature","properties":{"name":"پنجتن","kind":"neighbourhood","rank":4},"geometry":{"type":"Point","coordinates":[59.66942,36.309]}},{"type":"Feature","properties":{"name":"شهید قربانی","kind":"neighbourhood","rank":4},"geometry":{"type":"Point","coordinates":[59.67905,36.32063]}},{"type":"Feature","properties":{"name":"پنجتن آل عبا","kind":"neighbourhood","rank":4},"geometry":{"type":"Point","coordinates":[59.68788,36.31889]}},{"type":"Feature","properties":{"name":"حسین آباد","kind":"neighbourhood","rank":4},"geometry":{"type":"Point","coordinates":[59.64833,36.28499]}},{"type":"Feature","properties":{"name":"رضاییه","kind":"neighbourhood","rank":4},"geometry":{"type":"Point","coordinates":[59.63437,36.28582]}},{"type":"Feature","properties":{"name":"سجادیه","kind":"neighbourhood","rank":4},"geometry":{"type":"Point","coordinates":[59.63937,36.28625]}},{"type":"Feature","properties":{"name":"ثامن","kind":"neighbourhood","rank":4},"geometry":{"type":"Point","coordinates":[59.67228,36.28628]}},{"type":"Feature","properties":{"name":"شهید آوینی","kind":"neighbourhood","rank":4},"geometry":{"type":"Point","coordinates":[59.66754,36.2979]}},{"type":"Feature","properties":{"name":"نیزه","kind":"neighbourhood","rank":4},"geometry":{"type":"Point","coordinates":[59.68434,36.30285]}},{"type":"Feature","properties":{"name":"امیر المومنین","kind":"neighbourhood","rank":4},"geometry":{"type":"Point","coordinates":[59.68191,36.29401]}},{"type":"Feature","properties":{"name":"شیرودی","kind":"neighbourhood","rank":4},"geometry":{"type":"Point","coordinates":[59.63016,36.27086]}},{"type":"Feature","properties":{"name":"چهنو","kind":"neighbourhood","rank":4},"geometry":{"type":"Point","coordinates":[59.62479,36.27573]}},{"type":"Feature","properties":{"name":"کارمندان دوم","kind":"neighbourhood","rank":4},"geometry":{"type":"Point","coordinates":[59.64486,36.26785]}},{"type":"Feature","properties":{"name":"کارمندان اول","kind":"neighbourhood","rank":4},"geometry":{"type":"Point","coordinates":[59.63254,36.27712]}},{"type":"Feature","properties":{"name":"محمد آباد","kind":"neighbourhood","rank":4},"geometry":{"type":"Point","coordinates":[59.63807,36.26411]}},{"type":"Feature","properties":{"name":"مصطفی خمینی","kind":"neighbourhood","rank":4},"geometry":{"type":"Point","coordinates":[59.63678,36.2575]}},{"type":"Feature","properties":{"name":"شهرک شیرین","kind":"neighbourhood","rank":4},"geometry":{"type":"Point","coordinates":[59.6546,36.25389]}},{"type":"Feature","properties":{"name":"کشاورز","kind":"neighbourhood","rank":4},"geometry":{"type":"Point","coordinates":[59.67488,36.25627]}},{"type":"Feature","properties":{"name":"شهید معقول","kind":"neighbourhood","rank":4},"geometry":{"type":"Point","coordinates":[59.66628,36.25979]}},{"type":"Feature","properties":{"name":"امیر آباد","kind":"neighbourhood","rank":4},"geometry":{"type":"Point","coordinates":[59.65692,36.26486]}},{"type":"Feature","properties":{"name":"پورسینا","kind":"neighbourhood","rank":4},"geometry":{"type":"Point","coordinates":[59.67501,36.27315]}},{"type":"Feature","properties":{"name":"موعود","kind":"neighbourhood","rank":4},"geometry":{"type":"Point","coordinates":[59.679,36.26618]}},{"type":"Feature","properties":{"name":"اروند","kind":"neighbourhood","rank":4},"geometry":{"type":"Point","coordinates":[59.6823,36.26431]}},{"type":"Feature","properties":{"name":"انصار","kind":"neighbourhood","rank":4},"geometry":{"type":"Point","coordinates":[59.69012,36.26427]}},{"type":"Feature","properties":{"name":"عسگریه","kind":"neighbourhood","rank":4},"geometry":{"type":"Point","coordinates":[59.62863,36.23327]}},{"type":"Feature","properties":{"name":"انقلاب","kind":"neighbourhood","rank":4},"geometry":{"type":"Point","coordinates":[59.61866,36.23034]}},{"type":"Feature","properties":{"name":"رباط","kind":"neighbourhood","rank":4},"geometry":{"type":"Point","coordinates":[59.63016,36.20224]}},{"type":"Feature","properties":{"name":"ایمان","kind":"neighbourhood","rank":4},"geometry":{"type":"Point","coordinates":[59.59286,36.25171]}},{"type":"Feature","properties":{"name":"پروین اعتصامی","kind":"neighbourhood","rank":4},"geometry":{"type":"Point","coordinates":[59.61368,36.2586]}},{"type":"Feature","properties":{"name":"مقدم","kind":"neighbourhood","rank":4},"geometry":{"type":"Point","coordinates":[59.60979,36.26187]}},{"type":"Feature","properties":{"name":"کارگران","kind":"neighbourhood","rank":4},"geometry":{"type":"Point","coordinates":[59.62486,36.26426]}},{"type":"Feature","properties":{"name":"هفده شهریور","kind":"neighbourhood","rank":4},"geometry":{"type":"Point","coordinates":[59.6154,36.26949]}},{"type":"Feature","properties":{"name":"کوشش","kind":"neighbourhood","rank":4},"geometry":{"type":"Point","coordinates":[59.60289,36.26474]}},{"type":"Feature","properties":{"name":"عنصری","kind":"neighbourhood","rank":4},"geometry":{"type":"Point","coordinates":[59.61102,36.27562]}},{"type":"Feature","properties":{"name":"شهید بهشتی","kind":"neighbourhood","rank":4},"geometry":{"type":"Point","coordinates":[59.57206,36.28024]}},{"type":"Feature","properties":{"name":"امام خمینی","kind":"neighbourhood","rank":4},"geometry":{"type":"Point","coordinates":[59.58858,36.27332]}},{"type":"Feature","properties":{"name":"خرمشهر","kind":"neighbourhood","rank":4},"geometry":{"type":"Point","coordinates":[59.59278,36.26831]}},{"type":"Feature","properties":{"name":"امام رضا (ع)","kind":"neighbourhood","rank":4},"geometry":{"type":"Point","coordinates":[59.59934,36.27268]}},{"type":"Feature","properties":{"name":"ده دی","kind":"neighbourhood","rank":4},"geometry":{"type":"Point","coordinates":[59.59735,36.28248]}},{"type":"Feature","properties":{"name":"جنت","kind":"neighbourhood","rank":4},"geometry":{"type":"Point","coordinates":[59.59642,36.29092]}},{"type":"Feature","properties":{"name":"سلام","kind":"neighbourhood","rank":4},"geometry":{"type":"Point","coordinates":[59.60271,36.27851]}},{"type":"Feature","properties":{"name":"دانش","kind":"neighbourhood","rank":4},"geometry":{"type":"Point","coordinates":[59.60496,36.28268]}},{"type":"Feature","properties":{"name":"آیت الله خامنه ای","kind":"neighbourhood","rank":4},"geometry":{"type":"Point","coordinates":[59.60705,36.28695]}},{"type":"Feature","properties":{"name":"سراب","kind":"neighbourhood","rank":4},"geometry":{"type":"Point","coordinates":[59.60442,36.2934]}},{"type":"Feature","properties":{"name":"اقبال","kind":"neighbourhood","rank":4},"geometry":{"type":"Point","coordinates":[59.46977,36.33338]}},{"type":"Feature","properties":{"name":"حافظ","kind":"neighbourhood","rank":4},"geometry":{"type":"Point","coordinates":[59.49264,36.32645]}},{"type":"Feature","properties":{"name":"هنرستان","kind":"neighbourhood","rank":4},"geometry":{"type":"Point","coordinates":[59.50449,36.31972]}},{"type":"Feature","properties":{"name":"سرافرازان","kind":"neighbourhood","rank":4},"geometry":{"type":"Point","coordinates":[59.51063,36.29498]}},{"type":"Feature","properties":{"name":"بهارستان","kind":"neighbourhood","rank":4},"geometry":{"type":"Point","coordinates":[59.54397,36.27966]}},{"type":"Feature","properties":{"name":"نرگس","kind":"neighbourhood","rank":4},"geometry":{"type":"Point","coordinates":[59.48425,36.34953]}},{"type":"Feature","properties":{"name":"ولیعصر","kind":"neighbourhood","rank":4},"geometry":{"type":"Point","coordinates":[59.52184,36.35009]}},{"type":"Feature","properties":{"name":"استاد یوسفی","kind":"neighbourhood","rank":4},"geometry":{"type":"Point","coordinates":[59.51926,36.35633]}},{"type":"Feature","properties":{"name":"شاهد","kind":"neighbourhood","rank":4},"geometry":{"type":"Point","coordinates":[59.50408,36.35309]}},{"type":"Feature","properties":{"name":"فرهنگیان","kind":"neighbourhood","rank":4},"geometry":{"type":"Point","coordinates":[59.49588,36.35502]}},{"type":"Feature","properties":{"name":"خاتم الانبیا","kind":"neighbourhood","rank":4},"geometry":{"type":"Point","coordinates":[59.52428,36.37284]}},{"type":"Feature","properties":{"name":"حجاب","kind":"neighbourhood","rank":4},"geometry":{"type":"Point","coordinates":[59.51612,36.36965]}},{"type":"Feature","properties":{"name":"ایثارگران","kind":"neighbourhood","rank":4},"geometry":{"type":"Point","coordinates":[59.53506,36.37555]}},{"type":"Feature","properties":{"name":"فارغ التحصیلان","kind":"neighbourhood","rank":4},"geometry":{"type":"Point","coordinates":[59.46942,36.34213]}},{"type":"Feature","properties":{"name":"تربیت","kind":"neighbourhood","rank":4},"geometry":{"type":"Point","coordinates":[59.48886,36.34221]}},{"type":"Feature","properties":{"name":"شریف","kind":"neighbourhood","rank":4},"geometry":{"type":"Point","coordinates":[59.48279,36.33738]}},{"type":"Feature","properties":{"name":"دانشجو","kind":"neighbourhood","rank":4},"geometry":{"type":"Point","coordinates":[59.50366,36.33171]}},{"type":"Feature","properties":{"name":"فرهنگ","kind":"neighbourhood","rank":4},"geometry":{"type":"Point","coordinates":[59.5184,36.32671]}},{"type":"Feature","properties":{"name":"سید رضی","kind":"neighbourhood","rank":4},"geometry":{"type":"Point","coordinates":[59.5219,36.33547]}},{"type":"Feature","properties":{"name":"شهید رضوی","kind":"neighbourhood","rank":4},"geometry":{"type":"Point","coordinates":[59.5236,36.34168]}},{"type":"Feature","properties":{"name":"امیریه","kind":"neighbourhood","rank":4},"geometry":{"type":"Point","coordinates":[59.48685,36.388]}},{"type":"Feature","properties":{"name":"وکیل آباد","kind":"neighbourhood","rank":4},"geometry":{"type":"Point","coordinates":[59.45397,36.34558]}},{"type":"Feature","properties":{"name":"دریادل","kind":"neighbourhood","rank":4},"geometry":{"type":"Point","coordinates":[59.62234,36.29927]}},{"type":"Feature","properties":{"name":"بالا خیابان","kind":"neighbourhood","rank":4},"geometry":{"type":"Point","coordinates":[59.61397,36.29401]}},{"type":"Feature","properties":{"name":"عیدگاه","kind":"neighbourhood","rank":4},"geometry":{"type":"Point","coordinates":[59.61649,36.28255]}},{"type":"Feature","properties":{"name":"پایین خیابان","kind":"neighbourhood","rank":4},"geometry":{"type":"Point","coordinates":[59.62201,36.28818]}},{"type":"Feature","properties":{"name":"منطقه ثامن","kind":"suburb","rank":3},"geometry":{"type":"Point","coordinates":[59.62111,36.28932]}},{"type":"Feature","properties":{"name":"آبادگران","kind":"neighbourhood","rank":4},"geometry":{"type":"Point","coordinates":[59.55058,36.27026]}},{"type":"Feature","properties":{"name":"کلاته عبدل","kind":"village","rank":5},"geometry":{"type":"Point","coordinates":[59.39355,36.347]}},{"type":"Feature","properties":{"name":"کردینه","kind":"village","rank":5},"geometry":{"type":"Point","coordinates":[59.25233,36.26834]}},{"type":"Feature","properties":{"name":"مجموعه بوستان","kind":"suburb","rank":3},"geometry":{"type":"Point","coordinates":[59.26568,36.48829]}},{"type":"Feature","properties":{"name":"مجموعه گلستان","kind":"suburb","rank":3},"geometry":{"type":"Point","coordinates":[59.24474,36.50226]}},{"type":"Feature","properties":{"name":"کلاته معاون","kind":"village","rank":5},"geometry":{"type":"Point","coordinates":[59.25834,36.42019]}},{"type":"Feature","properties":{"name":"کرتیان","kind":"village","rank":5},"geometry":{"type":"Point","coordinates":[59.51401,36.17272]}},{"type":"Feature","properties":{"name":"چاه خاصه","kind":"village","rank":5},"geometry":{"type":"Point","coordinates":[59.39981,36.40305]}},{"type":"Feature","properties":{"name":"صفی آباد","kind":"village","rank":5},"geometry":{"type":"Point","coordinates":[59.43302,36.37599]}},{"type":"Feature","properties":{"name":"دهنو","kind":"village","rank":5},"geometry":{"type":"Point","coordinates":[59.42408,36.36452]}},{"type":"Feature","properties":{"name":"چهار فصل","kind":"village","rank":5},"geometry":{"type":"Point","coordinates":[59.41164,36.47036]}},{"type":"Feature","properties":{"name":"مجتمع مسکونی برج های ‌آسمان","kind":"neighbourhood","rank":4},"geometry":{"type":"Point","coordinates":[59.53961,36.26591]}},{"type":"Feature","properties":{"name":"آیت الله کاشانی","kind":"neighbourhood","rank":4},"geometry":{"type":"Point","coordinates":[59.61415,36.30371]}},{"type":"Feature","properties":{"name":"عباس آباد","kind":"neighbourhood","rank":4},"geometry":{"type":"Point","coordinates":[59.65568,36.31869]}},{"type":"Feature","properties":{"name":"سیلو","kind":"neighbourhood","rank":4},"geometry":{"type":"Point","coordinates":[59.6301,36.30368]}},{"type":"Feature","properties":{"name":"خیرآباد","kind":"neighbourhood","rank":4},"geometry":{"type":"Point","coordinates":[59.63658,36.30738]}},{"type":"Feature","properties":{"name":"ترمینال","kind":"neighbourhood","rank":4},"geometry":{"type":"Point","coordinates":[59.59112,36.25931]}},{"type":"Feature","properties":{"name":"زکریا","kind":"neighbourhood","rank":4},"geometry":{"type":"Point","coordinates":[59.52457,36.27573]}},{"type":"Feature","properties":{"name":"دانشگاه","kind":"neighbourhood","rank":4},"geometry":{"type":"Point","coordinates":[59.53169,36.3135]}},{"type":"Feature","properties":{"name":"کوهستان پارک","kind":"neighbourhood","rank":4},"geometry":{"type":"Point","coordinates":[59.44522,36.33587]}},{"type":"Feature","properties":{"name":"جلالیه","kind":"neighbourhood","rank":4},"geometry":{"type":"Point","coordinates":[59.63001,36.28254]}},{"type":"Feature","properties":{"name":"چهارباغ","kind":"neighbourhood","rank":4},"geometry":{"type":"Point","coordinates":[59.60963,36.29092]}},{"type":"Feature","properties":{"name":"جوادیه","kind":"neighbourhood","rank":4},"geometry":{"type":"Point","coordinates":[59.62697,36.29206]}},{"type":"Feature","properties":{"name":"کوی راد","kind":"neighbourhood","rank":4},"geometry":{"type":"Point","coordinates":[59.62538,36.2868]}},{"type":"Feature","properties":{"name":"یوسفیه","kind":"neighbourhood","rank":4},"geometry":{"type":"Point","coordinates":[59.47337,36.35029]}},{"type":"Feature","properties":{"name":"میعاد","kind":"neighbourhood","rank":4},"geometry":{"type":"Point","coordinates":[59.48178,36.35461]}},{"type":"Feature","properties":{"name":"قائم","kind":"neighbourhood","rank":4},"geometry":{"type":"Point","coordinates":[59.63538,36.32455]}},{"type":"Feature","properties":{"name":"گلبرگ","kind":"neighbourhood","rank":4},"geometry":{"type":"Point","coordinates":[59.59096,36.32501]}},{"type":"Feature","properties":{"name":"فتح المبین","kind":"neighbourhood","rank":4},"geometry":{"type":"Point","coordinates":[59.58135,36.32536]}},{"type":"Feature","properties":{"name":"خاتم الانبیا","kind":"neighbourhood","rank":4},"geometry":{"type":"Point","coordinates":[59.58572,36.32004]}},{"type":"Feature","properties":{"name":"حجت","kind":"neighbourhood","rank":4},"geometry":{"type":"Point","coordinates":[59.59276,36.32024]}},{"type":"Feature","properties":{"name":"رئوف","kind":"neighbourhood","rank":4},"geometry":{"type":"Point","coordinates":[59.59826,36.31997]}},{"type":"Feature","properties":{"name":"یاس","kind":"neighbourhood","rank":4},"geometry":{"type":"Point","coordinates":[59.60006,36.32654]}},{"type":"Feature","properties":{"name":"گلبرگ شمالی","kind":"neighbourhood","rank":4},"geometry":{"type":"Point","coordinates":[59.59525,36.32861]}},{"type":"Feature","properties":{"name":"موسوی قوچانی","kind":"neighbourhood","rank":4},"geometry":{"type":"Point","coordinates":[59.59448,36.33186]}},{"type":"Feature","properties":{"name":"زمرد","kind":"neighbourhood","rank":4},"geometry":{"type":"Point","coordinates":[59.59182,36.33967]}},{"type":"Feature","properties":{"name":"گوارشکی","kind":"village","rank":5},"geometry":{"type":"Point","coordinates":[59.63813,36.52173]}},{"type":"Feature","properties":{"name":"گلبرگ","kind":"neighbourhood","rank":4},"geometry":{"type":"Point","coordinates":[59.59233,36.32609]}},{"type":"Feature","properties":{"name":"نه دره","kind":"neighbourhood","rank":4},"geometry":{"type":"Point","coordinates":[59.47663,36.30772]}},{"type":"Feature","properties":{"name":"ادیب نیشابوری","kind":"neighbourhood","rank":4},"geometry":{"type":"Point","coordinates":[59.52086,36.36395]}},{"type":"Feature","properties":{"name":"حسابی جنوبی","kind":"neighbourhood","rank":4},"geometry":{"type":"Point","coordinates":[59.49564,36.34965]}},{"type":"Feature","properties":{"name":"توس سفلی","kind":"neighbourhood","rank":4},"geometry":{"type":"Point","coordinates":[59.51954,36.48367]}},{"type":"Feature","properties":{"name":"سرباغان","kind":"village","rank":5},"geometry":{"type":"Point","coordinates":[59.50688,36.47706]}},{"type":"Feature","properties":{"name":"اسلامیه","kind":"neighbourhood","rank":4},"geometry":{"type":"Point","coordinates":[59.51517,36.48781]}},{"type":"Feature","properties":{"name":"شهرک ویلایی چهار فصل","kind":"neighbourhood","rank":4},"geometry":{"type":"Point","coordinates":[59.39181,36.45878]}},{"type":"Feature","properties":{"name":"مجتمع مسکونی نسیم","kind":"neighbourhood","rank":4},"geometry":{"type":"Point","coordinates":[59.48922,36.38255]}},{"type":"Feature","properties":{"name":"شهرک طرق","kind":"neighbourhood","rank":4},"geometry":{"type":"Point","coordinates":[59.66379,36.20409]}},{"type":"Feature","properties":{"name":"ارگی","kind":"village","rank":5},"geometry":{"type":"Point","coordinates":[59.1036,36.47845]}},{"type":"Feature","properties":{"name":"مجتمع مسکونی شقایق","kind":"neighbourhood","rank":4},"geometry":{"type":"Point","coordinates":[59.32328,36.40935]}},{"type":"Feature","properties":{"name":"مجتمع مسکونی یاس","kind":"neighbourhood","rank":4},"geometry":{"type":"Point","coordinates":[59.32642,36.41017]}},{"type":"Feature","properties":{"name":"زیرکن","kind":"village","rank":5},"geometry":{"type":"Point","coordinates":[59.64514,36.35692]}},{"type":"Feature","properties":{"name":"شهرک قدس","kind":"neighbourhood","rank":4},"geometry":{"type":"Point","coordinates":[59.60514,36.34033]}},{"type":"Feature","properties":{"name":"مجتمع آفتاب","kind":"neighbourhood","rank":4},"geometry":{"type":"Point","coordinates":[59.52478,36.3751]}},{"type":"Feature","properties":{"name":"مجتمع مسکونی تک مشهد","kind":"neighbourhood","rank":4},"geometry":{"type":"Point","coordinates":[59.55952,36.29051]}},{"type":"Feature","properties":{"name":"دستگردان","kind":"village","rank":5},"geometry":{"type":"Point","coordinates":[59.74616,36.25784]}},{"type":"Feature","properties":{"name":"اروند","kind":"village","rank":5},"geometry":{"type":"Point","coordinates":[59.58402,36.37978]}},{"type":"Feature","properties":{"name":"شهرک مروارید طرقدر","kind":"neighbourhood","rank":4},"geometry":{"type":"Point","coordinates":[59.35198,36.30592]}},{"type":"Feature","properties":{"name":"همت آباد","kind":"village","rank":5},"geometry":{"type":"Point","coordinates":[59.66426,36.35414]}},{"type":"Feature","properties":{"name":"شهرک نگین","kind":"neighbourhood","rank":4},"geometry":{"type":"Point","coordinates":[59.35273,36.30766]}},{"type":"Feature","properties":{"name":"علی آباد","kind":"village","rank":5},"geometry":{"type":"Point","coordinates":[59.66592,36.36631]}},{"type":"Feature","properties":{"name":"شوراب","kind":"village","rank":5},"geometry":{"type":"Point","coordinates":[59.54431,36.49696]}},{"type":"Feature","properties":{"name":"کریم آباد","kind":"neighbourhood","rank":4},"geometry":{"type":"Point","coordinates":[59.69513,36.28616]}},{"type":"Feature","properties":{"name":"حسن آباد","kind":"village","rank":5},"geometry":{"type":"Point","coordinates":[59.56281,36.49962]}},{"type":"Feature","properties":{"name":"مسگران","kind":"village","rank":5},"geometry":{"type":"Point","coordinates":[59.54652,36.45785]}},{"type":"Feature","properties":{"name":"چلقی","kind":"village","rank":5},"geometry":{"type":"Point","coordinates":[59.88971,36.21901]}},{"type":"Feature","properties":{"name":"گناباد","kind":"village","rank":5},"geometry":{"type":"Point","coordinates":[59.28589,36.55738]}},{"type":"Feature","properties":{"name":"شهرک مسکونی الماس","kind":"neighbourhood","rank":4},"geometry":{"type":"Point","coordinates":[59.5998,36.35037]}},{"type":"Feature","properties":{"name":"حلوایی","kind":"village","rank":5},"geometry":{"type":"Point","coordinates":[59.69071,36.29118]}},{"type":"Feature","properties":{"name":"نوده","kind":"neighbourhood","rank":4},"geometry":{"type":"Point","coordinates":[59.54798,36.3775]}},{"type":"Feature","properties":{"name":"شهر آباد","kind":"village","rank":5},"geometry":{"type":"Point","coordinates":[59.72633,36.27201]}},{"type":"Feature","properties":{"name":"اراضی فاز 2 آبفام","kind":"suburb","rank":3},"geometry":{"type":"Point","coordinates":[59.26792,36.47091]}},{"type":"Feature","properties":{"name":"دندانپزشکان","kind":"neighbourhood","rank":4},"geometry":{"type":"Point","coordinates":[59.4742,36.3398]}},{"type":"Feature","properties":{"name":"مجتمع مسکونی آناهید","kind":"neighbourhood","rank":4},"geometry":{"type":"Point","coordinates":[59.48967,36.38247]}},{"type":"Feature","properties":{"name":"مجتمع مسکونی الماس","kind":"neighbourhood","rank":4},"geometry":{"type":"Point","coordinates":[59.52045,36.2936]}},{"type":"Feature","properties":{"name":"کلاته فیض آباد","kind":"village","rank":5},"geometry":{"type":"Point","coordinates":[59.74318,36.29244]}},{"type":"Feature","properties":{"name":"ارمغان","kind":"neighbourhood","rank":4},"geometry":{"type":"Point","coordinates":[59.46807,36.34736]}},{"type":"Feature","properties":{"name":"کلاته سید علی","kind":"village","rank":5},"geometry":{"type":"Point","coordinates":[59.48202,36.47458]}},{"type":"Feature","properties":{"name":"چهار چشمه","kind":"neighbourhood","rank":4},"geometry":{"type":"Point","coordinates":[59.48972,36.29359]}},{"type":"Feature","properties":{"name":"چشمه پونه","kind":"village","rank":5},"geometry":{"type":"Point","coordinates":[59.55158,36.26338]}},{"type":"Feature","properties":{"name":"به آباد","kind":"village","rank":5},"geometry":{"type":"Point","coordinates":[59.25981,36.55181]}},{"type":"Feature","properties":{"name":"حسین آباد گوشه","kind":"village","rank":5},"geometry":{"type":"Point","coordinates":[59.26672,36.55737]}},{"type":"Feature","properties":{"name":"ناوخ","kind":"village","rank":5},"geometry":{"type":"Point","coordinates":[59.27227,36.58182]}},{"type":"Feature","properties":{"name":"باغ آراد","kind":"village","rank":5},"geometry":{"type":"Point","coordinates":[59.49732,36.48906]}},{"type":"Feature","properties":{"name":"صادقیه","kind":"neighbourhood","rank":4},"geometry":{"type":"Point","coordinates":[59.60133,36.33758]}},{"type":"Feature","properties":{"name":"حرم مطهر رضوی","kind":"neighbourhood","rank":4},"geometry":{"type":"Point","coordinates":[59.61499,36.28827]}},{"type":"Feature","properties":{"name":"فردوسی","kind":"neighbourhood","rank":4},"geometry":{"type":"Point","coordinates":[59.55625,36.32871]}},{"type":"Feature","properties":{"name":"زمانه","kind":"neighbourhood","rank":4},"geometry":{"type":"Point","coordinates":[59.55464,36.33535]}},{"type":"Feature","properties":{"name":"مهران","kind":"neighbourhood","rank":4},"geometry":{"type":"Point","coordinates":[59.50971,36.33678]}},{"type":"Feature","properties":{"name":"شهرک عرب ها","kind":"suburb","rank":3},"geometry":{"type":"Point","coordinates":[59.63814,36.25984]}},{"type":"Feature","properties":{"name":"گرجی سفلی","kind":"village","rank":5},"geometry":{"type":"Point","coordinates":[59.65901,36.35564]}},{"type":"Feature","properties":{"name":"دهرود","kind":"village","rank":5},"geometry":{"type":"Point","coordinates":[59.65933,36.34907]}},{"type":"Feature","properties":{"name":"سیاسک","kind":"village","rank":5},"geometry":{"type":"Point","coordinates":[59.66983,36.36707]}}]}