{"type":"FeatureCollection","features":[{"type":"Feature","properties":{"name":"استخر چشم"},"geometry":{"type":"Polygon","coordinates":[[[59.53601,36.31939],[59.53609,36.31932],[59.53618,36.31926],[59.53627,36.3192],[59.53639,36.31915],[59.5365,36.31911],[59.53662,36.3191],[59.53675,36.31909],[59.53688,36.3191],[59.53703,36.31912],[59.53686,36.31925],[59.53675,36.31931],[59.53662,36.31937],[59.53647,36.31941],[59.53633,36.31942],[59.53617,36.31941],[59.53601,36.31939]]]}},{"type":"Feature","properties":{},"geometry":{"type":"Polygon","coordinates":[[[59.56177,36.28315],[59.56207,36.28327],[59.56234,36.28339],[59.56287,36.28256],[59.56261,36.28245],[59.5623,36.28232],[59.56177,36.28315]]]}},{"type":"Feature","properties":{},"geometry":{"type":"Polygon","coordinates":[[[59.59546,36.18091],[59.59554,36.18098],[59.59557,36.18099],[59.59564,36.18102],[59.59568,36.18105],[59.59573,36.1811],[59.59575,36.18109],[59.59577,36.18108],[59.59581,36.1811],[59.59621,36.18081],[59.59614,36.18074],[59.59614,36.18067],[59.59588,36.18058],[59.59562,36.18063],[59.59546,36.18074],[59.59532,36.18079],[59.59508,36.1808],[59.59469,36.18069],[59.59501,36.18092],[59.59514,36.18095],[59.59533,36.1809],[59.59546,36.18091]]]}},{"type":"Feature","properties":{"name":"دریاچه سد طرق"},"geometry":{"type":"Polygon","coordinates":[[[59.5474,36.17558],[59.54782,36.17647],[59.54761,36.17661],[59.54764,36.17709],[59.5478,36.17734],[59.54816,36.17731],[59.54834,36.17757],[59.54766,36.1777],[59.54748,36.17802],[59.54723,36.17799],[59.54692,36.17769],[59.54675,36.17788],[59.54617,36.17771],[59.54643,36.17849],[59.54627,36.17875],[59.54524,36.17854],[59.54426,36.17875],[59.54378,36.17907],[59.54339,36.17946],[59.54336,36.17988],[59.54376,36.17993],[59.54366,36.18037],[59.5437,36.18072],[59.54378,36.18091],[59.54401,36.18109],[59.54426,36.18096],[59.54423,36.18076],[59.54402,36.18058],[59.54418,36.18032],[59.5444,36.18012],[59.54435,36.17963],[59.54465,36.17939],[59.54506,36.17936],[59.54531,36.17947],[59.5455,36.17965],[59.54523,36.18012],[59.54481,36.18049],[59.5449,36.18086],[59.54475,36.18108],[59.54478,36.18125],[59.54503,36.18108],[59.54519,36.18055],[59.54568,36.18032],[59.54608,36.18026],[59.5463,36.18031],[59.5464,36.18049],[59.54642,36.18071],[59.54658,36.18089],[59.54682,36.18092],[59.5469,36.18061],[59.54687,36.18033],[59.54716,36.18004],[59.54742,36.17963],[59.54794,36.17985],[59.54853,36.17926],[59.54889,36.17874],[59.54935,36.17873],[59.54898,36.17921],[59.54894,36.18032],[59.54913,36.18075],[59.54906,36.18096],[59.54891,36.18114],[59.54899,36.18127],[59.54921,36.18134],[59.54957,36.18165],[59.54941,36.1811],[59.54991,36.18087],[59.54974,36.18061],[59.54955,36.18042],[59.54959,36.17953],[59.5498,36.17941],[59.55001,36.17945],[59.55026,36.17938],[59.5501,36.17909],[59.55033,36.17879],[59.5505,36.17846],[59.5508,36.17831],[59.55072,36.17754],[59.55111,36.17722],[59.55163,36.17706],[59.55198,36.17706],[59.55213,36.17692],[59.55234,36.17684],[59.55291,36.17697],[59.55281,36.17686],[59.55271,36.17675],[59.55263,36.17665],[59.55254,36.17654],[59.55246,36.17644],[59.55238,36.17628],[59.55229,36.17611],[59.55222,36.17589],[59.5522,36.17577],[59.55221,36.17564],[59.55226,36.1755],[59.55233,36.17538],[59.55242,36.17523],[59.5525,36.17509],[59.5526,36.175],[59.55271,36.1749],[59.55283,36.17482],[59.55296,36.17475],[59.55221,36.17465],[59.55178,36.17465],[59.55139,36.17464],[59.55112,36.17463],[59.55099,36.17456],[59.55089,36.17447],[59.55112,36.17417],[59.55127,36.17403],[59.55149,36.17398],[59.55157,36.17364],[59.55143,36.17364],[59.55113,36.17376],[59.55075,36.17389],[59.55051,36.17406],[59.55032,36.17412],[59.55011,36.17403],[59.54991,36.17394],[59.54976,36.17373],[59.54979,36.17357],[59.54978,36.17343],[59.54981,36.17333],[59.54978,36.17326],[59.54978,36.17315],[59.55001,36.17299],[59.55003,36.17285],[59.5499,36.17285],[59.54984,36.17292],[59.54973,36.17292],[59.54957,36.17304],[59.54949,36.17319],[59.54943,36.17326],[59.54933,36.17319],[59.54924,36.17297],[59.54914,36.17277],[59.54917,36.17257],[59.54949,36.17224],[59.5493,36.17222],[59.5492,36.17218],[59.5492,36.17189],[59.54929,36.17174],[59.54944,36.17147],[59.54944,36.1714],[59.54955,36.17136],[59.54978,36.17119],[59.55081,36.17059],[59.55086,36.17051],[59.55092,36.17048],[59.55102,36.17032],[59.55092,36.17027],[59.55081,36.17038],[59.55027,36.17071],[59.55015,36.17072],[59.54987,36.17089],[59.5496,36.17093],[59.5496,36.17075],[59.54948,36.17076],[59.54934,36.17098],[59.54927,36.17101],[59.54914,36.17096],[59.54911,36.1709],[59.54893,36.17089],[59.54876,36.17093],[59.54875,36.17108],[59.54871,36.17114],[59.54879,36.17135],[59.54869,36.17149],[59.5485,36.17176],[59.54845,36.17197],[59.54824,36.17211],[59.54742,36.17177],[59.54732,36.17164],[59.54724,36.17161],[59.5472,36.17132],[59.54696,36.17111],[59.54669,36.17114],[59.54647,36.17108],[59.54635,36.17101],[59.54619,36.17103],[59.54602,36.17099],[59.54602,36.17082],[59.54556,36.17005],[59.54541,36.17034],[59.54563,36.17121],[59.54554,36.17135],[59.54532,36.17132],[59.54515,36.17139],[59.54481,36.17139],[59.54473,36.17133],[59.54458,36.17135],[59.54442,36.17136],[59.54435,36.17129],[59.54407,36.17124],[59.54349,36.17124],[59.54324,36.17111],[59.54315,36.17095],[59.54265,36.17094],[59.54246,36.17069],[59.5422,36.17088],[59.54195,36.17085],[59.54181,36.1711],[59.54151,36.17105],[59.54138,36.17123],[59.5404,36.17149],[59.5394,36.17185],[59.53819,36.1719],[59.53761,36.1716],[59.53661,36.17123],[59.53614,36.17067],[59.53671,36.16944],[59.5362,36.16911],[59.53616,36.16865],[59.53671,36.16771],[59.53626,36.16707],[59.53566,36.16707],[59.53545,36.16534],[59.53474,36.16532],[59.5347,36.16612],[59.5348,36.16722],[59.53534,36.1678],[59.53414,36.16915],[59.53457,36.16998],[59.53412,36.171],[59.5324,36.17109],[59.5322,36.17051],[59.53056,36.17111],[59.53013,36.17184],[59.52931,36.17113],[59.52896,36.17148],[59.52906,36.17206],[59.52765,36.17239],[59.52644,36.173],[59.52517,36.17308],[59.52439,36.17367],[59.52385,36.17363],[59.52174,36.17474],[59.52042,36.17447],[59.51818,36.17353],[59.51785,36.17328],[59.51749,36.17316],[59.51742,36.17366],[59.51807,36.17423],[59.51863,36.1746],[59.51909,36.17519],[59.52034,36.17611],[59.52239,36.17665],[59.52241,36.1775],[59.5226,36.17782],[59.52327,36.17704],[59.52331,36.17648],[59.52884,36.17543],[59.5297,36.17503],[59.53104,36.17696],[59.53109,36.17486],[59.53174,36.17408],[59.53375,36.17377],[59.53423,36.17405],[59.5359,36.17514],[59.53579,36.17625],[59.53691,36.17563],[59.53753,36.17464],[59.53789,36.17488],[59.53759,36.17599],[59.53738,36.17725],[59.53697,36.17895],[59.53771,36.17882],[59.53806,36.17768],[59.53856,36.17732],[59.53867,36.17658],[59.53961,36.17486],[59.53993,36.17457],[59.53974,36.17606],[59.54006,36.17678],[59.53983,36.1776],[59.54002,36.17821],[59.54027,36.17729],[59.54058,36.1769],[59.54052,36.17642],[59.54058,36.17542],[59.54139,36.17471],[59.5424,36.17434],[59.5424,36.17576],[59.54296,36.17546],[59.54313,36.17485],[59.54367,36.17501],[59.54397,36.17465],[59.54446,36.17463],[59.54487,36.17433],[59.54523,36.17473],[59.54559,36.17465],[59.5458,36.17436],[59.54628,36.17466],[59.54623,36.17489],[59.5458,36.17508],[59.5457,36.17541],[59.54531,36.17553],[59.54499,36.17541],[59.54478,36.17568],[59.54441,36.17596],[59.5444,36.17616],[59.5442,36.17673],[59.5437,36.17718],[59.54411,36.17726],[59.54531,36.17631],[59.54618,36.17638],[59.54669,36.1762],[59.54691,36.17574],[59.5474,36.17558]]]}},{"type":"Feature","properties":{"name":"رودخانه چهل بازه"},"geometry":{"type":"Polygon","coordinates":[[[59.4984,36.34451],[59.5057,36.34404],[59.5068,36.34396],[59.50797,36.34426],[59.508,36.34442],[59.49845,36.34506],[59.49511,36.34528],[59.49066,36.34555],[59.48625,36.34579],[59.48592,36.34589],[59.48575,36.34545],[59.48559,36.34523],[59.48592,36.34512],[59.488,36.34517],[59.4906,36.34501],[59.49505,36.34473],[59.4984,36.34451]]]}},{"type":"Feature","properties":{},"geometry":{"type":"Polygon","coordinates":[[[59.71085,36.29244],[59.71097,36.29258],[59.71115,36.29265],[59.71154,36.2925],[59.71179,36.29265],[59.71192,36.29267],[59.71212,36.29253],[59.71246,36.2921],[59.71236,36.29201],[59.71226,36.29203],[59.71213,36.29214],[59.71203,36.29213],[59.71186,36.29215],[59.71163,36.29199],[59.7115,36.292],[59.71137,36.29208],[59.71121,36.29205],[59.71085,36.29244]]]}},{"type":"Feature","properties":{"name":"دریاچه بند گلستان"},"geometry":{"type":"Polygon","coordinates":[[[59.42823,36.32624],[59.42786,36.32645],[59.42706,36.32691],[59.42681,36.32639],[59.42665,36.32646],[59.42642,36.32706],[59.42643,36.32735],[59.42654,36.32755],[59.42653,36.32776],[59.42643,36.32792],[59.42617,36.32806],[59.42586,36.32828],[59.42567,36.32855],[59.42533,36.32876],[59.42491,36.32892],[59.42439,36.32894],[59.42371,36.32876],[59.42329,36.32828],[59.42277,36.32791],[59.4221,36.32755],[59.42074,36.327],[59.41952,36.32635],[59.41898,36.32612],[59.41867,36.32593],[59.41857,36.32565],[59.41867,36.32535],[59.41901,36.32502],[59.41858,36.32438],[59.41805,36.32402],[59.41795,36.3236],[59.4181,36.32325],[59.41794,36.32306],[59.41751,36.32243],[59.41787,36.32228],[59.4185,36.32214],[59.41917,36.32229],[59.41933,36.32235],[59.4198,36.32258],[59.42122,36.32355],[59.42167,36.32374],[59.4222,36.32402],[59.42232,36.32437],[59.42233,36.32485],[59.42269,36.32532],[59.42386,36.32571],[59.42451,36.32578],[59.42477,36.32554],[59.42503,36.32546],[59.42507,36.32524],[59.42548,36.32537],[59.42668,36.32509],[59.42702,36.32509],[59.4272,36.32502],[59.42732,36.32469],[59.42745,36.32439],[59.42755,36.32413],[59.42779,36.32414],[59.42775,36.32459],[59.42771,36.32512],[59.42741,36.32548],[59.42754,36.32562],[59.42808,36.32608],[59.42823,36.32624]]]}},{"type":"Feature","properties":{},"geometry":{"type":"Polygon","coordinates":[[[59.44426,36.33469],[59.44419,36.33439],[59.44458,36.33434],[59.44465,36.33463],[59.44426,36.33469]]]}},{"type":"Feature","properties":{},"geometry":{"type":"Polygon","coordinates":[[[59.44893,36.33858],[59.44859,36.33902],[59.44857,36.33911],[59.44862,36.3392],[59.4487,36.33924],[59.44878,36.33925],[59.44886,36.33923],[59.44894,36.33917],[59.44927,36.33873],[59.44928,36.33864],[59.44923,36.33857],[59.44917,36.33853],[59.44909,36.33852],[59.44899,36.33854],[59.44893,36.33858]]]}},{"type":"Feature","properties":{},"geometry":{"type":"Polygon","coordinates":[[[59.56793,36.39765],[59.56787,36.39763],[59.56726,36.3969],[59.56726,36.39686],[59.56821,36.39635],[59.56827,36.39636],[59.56888,36.3971],[59.56885,36.39717],[59.56793,36.39765]]]}},{"type":"Feature","properties":{},"geometry":{"type":"Polygon","coordinates":[[[59.56747,36.39659],[59.56741,36.39658],[59.56655,36.39554],[59.56655,36.39549],[59.5672,36.39513],[59.56727,36.39516],[59.56815,36.39619],[59.56813,36.39625],[59.56747,36.39659]]]}},{"type":"Feature","properties":{},"geometry":{"type":"Polygon","coordinates":[[[59.56899,36.39707],[59.56893,36.39706],[59.56832,36.39633],[59.56832,36.39629],[59.56927,36.39577],[59.56933,36.39579],[59.56994,36.39653],[59.56991,36.39659],[59.56899,36.39707]]]}},{"type":"Feature","properties":{},"geometry":{"type":"Polygon","coordinates":[[[59.56824,36.39618],[59.56818,36.39616],[59.56732,36.39512],[59.56732,36.39507],[59.56798,36.39472],[59.56804,36.39474],[59.56892,36.39577],[59.5689,36.39583],[59.56824,36.39618]]]}},{"type":"Feature","properties":{},"geometry":{"type":"Polygon","coordinates":[[[59.56952,36.39887],[59.56948,36.39886],[59.56843,36.39759],[59.56843,36.39754],[59.57002,36.39668],[59.57008,36.39667],[59.57114,36.39797],[59.57112,36.39802],[59.56952,36.39887]]]}},{"type":"Feature","properties":{},"geometry":{"type":"Polygon","coordinates":[[[59.81607,36.24225],[59.81608,36.24234],[59.81614,36.24242],[59.8179,36.24367],[59.81801,36.24369],[59.8181,36.24365],[59.81888,36.24176],[59.81886,36.24167],[59.81878,36.24164],[59.81634,36.24176],[59.81627,36.24178],[59.81621,36.24186],[59.81607,36.24225]]]}},{"type":"Feature","properties":{},"geometry":{"type":"Polygon","coordinates":[[[59.81494,36.23879],[59.81509,36.24074],[59.81512,36.2408],[59.81521,36.24085],[59.81578,36.241],[59.81586,36.24099],[59.81594,36.24095],[59.81752,36.23946],[59.81752,36.23939],[59.81747,36.23931],[59.81504,36.23866],[59.81497,36.2387],[59.81494,36.23879]]]}},{"type":"Feature","properties":{},"geometry":{"type":"Polygon","coordinates":[[[59.81864,36.24257],[59.81864,36.24262],[59.81869,36.24267],[59.81952,36.24289],[59.81957,36.24287],[59.81963,36.24282],[59.82016,36.24152],[59.82016,36.24145],[59.82014,36.24138],[59.81923,36.2399],[59.81917,36.23984],[59.81906,36.23978],[59.8179,36.23945],[59.81783,36.23945],[59.81784,36.2395],[59.81903,36.24146],[59.81905,36.24155],[59.81902,36.24164],[59.81864,36.24257]]]}},{"type":"Feature","properties":{},"geometry":{"type":"Polygon","coordinates":[[[59.81597,36.24101],[59.81595,36.24107],[59.81596,36.24116],[59.8162,36.24154],[59.81628,36.2416],[59.81638,36.24162],[59.81881,36.24148],[59.81886,36.24144],[59.81888,36.24137],[59.81779,36.23955],[59.81773,36.2395],[59.8176,36.2395],[59.81597,36.24101]]]}},{"type":"Feature","properties":{},"geometry":{"type":"Polygon","coordinates":[[[59.81525,36.24275],[59.81541,36.24472],[59.81547,36.24476],[59.81559,36.24475],[59.81784,36.24387],[59.81788,36.2438],[59.81783,36.24372],[59.81605,36.24244],[59.81594,36.24242],[59.81585,36.24243],[59.81531,36.24264],[59.81526,36.2427],[59.81525,36.24275]]]}},{"type":"Feature","properties":{},"geometry":{"type":"Polygon","coordinates":[[[59.81566,36.24481],[59.81561,36.24486],[59.81565,36.24488],[59.81713,36.24511],[59.81722,36.24511],[59.81732,36.24509],[59.81889,36.24446],[59.81895,36.2444],[59.81901,36.24432],[59.81952,36.24309],[59.81953,36.24301],[59.81948,36.24296],[59.81866,36.24274],[59.81859,36.24274],[59.81853,36.24279],[59.81813,36.24381],[59.81809,36.24387],[59.81802,36.2439],[59.81566,36.24481]]]}},{"type":"Feature","properties":{"name":"دریاچه سد چالیدره"},"geometry":{"type":"Polygon","coordinates":[[[59.35337,36.31691],[59.3528,36.31681],[59.35257,36.31687],[59.35223,36.31645],[59.35209,36.31661],[59.35213,36.31682],[59.35192,36.31705],[59.35179,36.31708],[59.35153,36.31698],[59.35138,36.31702],[59.35122,36.31716],[59.35105,36.31709],[59.3508,36.31724],[59.35087,36.31738],[59.35084,36.31746],[59.35064,36.31754],[59.35064,36.31767],[59.3507,36.31782],[59.35081,36.31797],[59.35091,36.318],[59.35118,36.31795],[59.3513,36.31792],[59.35137,36.31796],[59.35145,36.31792],[59.35138,36.31776],[59.35147,36.31772],[59.35155,36.31778],[59.35171,36.31779],[59.35185,36.31776],[59.35221,36.31762],[59.35222,36.31771],[59.35215,36.31783],[59.35202,36.31789],[59.35173,36.31798],[59.3516,36.31803],[59.35146,36.31795],[59.35139,36.31801],[59.35156,36.31811],[59.35179,36.31815],[59.3518,36.31853],[59.35191,36.31865],[59.3521,36.31918],[59.35194,36.31914],[59.35183,36.31904],[59.35119,36.31867],[59.35093,36.31872],[59.35061,36.31884],[59.35043,36.31902],[59.3502,36.31956],[59.3499,36.31964],[59.34925,36.32013],[59.34901,36.32005],[59.34876,36.32015],[59.34855,36.3203],[59.34878,36.32053],[59.34896,36.32068],[59.34907,36.32055],[59.34938,36.32062],[59.34961,36.32054],[59.35006,36.32016],[59.3507,36.31997],[59.35114,36.31969],[59.35153,36.32011],[59.35191,36.32027],[59.35138,36.3204],[59.35125,36.32048],[59.35152,36.32069],[59.35146,36.32082],[59.3512,36.32108],[59.35118,36.32129],[59.35144,36.32123],[59.35172,36.32123],[59.35193,36.32136],[59.35212,36.32139],[59.35227,36.32134],[59.35238,36.32102],[59.35253,36.32078],[59.3526,36.32096],[59.35271,36.32109],[59.35326,36.32112],[59.35311,36.3209],[59.3531,36.32072],[59.3531,36.32065],[59.35319,36.32065],[59.35324,36.32054],[59.35323,36.32048],[59.35315,36.3204],[59.353,36.32036],[59.35295,36.32035],[59.35295,36.32032],[59.35309,36.32032],[59.35314,36.3203],[59.35318,36.32025],[59.3535,36.31979],[59.35361,36.3195],[59.35368,36.31887],[59.35369,36.31881],[59.3539,36.31875],[59.35401,36.31864],[59.35407,36.31866],[59.35421,36.31881],[59.35421,36.31887],[59.35435,36.31898],[59.35442,36.31917],[59.3542,36.31944],[59.35401,36.31991],[59.35434,36.31962],[59.35466,36.3195],[59.35503,36.31954],[59.35525,36.31985],[59.35531,36.31963],[59.35518,36.3193],[59.35519,36.31898],[59.35527,36.3189],[59.35516,36.31853],[59.35507,36.31853],[59.35502,36.31839],[59.35508,36.31804],[59.35498,36.31754],[59.35337,36.31691]]]}},{"type":"Feature","properties":{},"geometry":{"type":"Polygon","coordinates":[[[59.48605,36.33075],[59.48596,36.33074],[59.48593,36.33074],[59.48589,36.33077],[59.48584,36.33085],[59.4858,36.33093],[59.48579,36.33101],[59.4858,36.33108],[59.48584,36.33113],[59.48589,36.33116],[59.48597,36.33118],[59.48605,36.33117],[59.48612,36.33116],[59.48617,36.33112],[59.48621,36.33108],[59.48622,36.33103],[59.48622,36.33095],[59.48621,36.33089],[59.48621,36.33077],[59.48622,36.33071],[59.48626,36.33067],[59.48631,36.33063],[59.4864,36.3306],[59.48646,36.33056],[59.48647,36.33053],[59.48646,36.33048],[59.48643,36.33044],[59.48639,36.33043],[59.48632,36.33043],[59.48627,36.33044],[59.48621,36.33047],[59.48618,36.3305],[59.48616,36.33053],[59.48616,36.33058],[59.48613,36.3306],[59.48611,36.33061],[59.4861,36.3307],[59.48608,36.33074],[59.48605,36.33075]]]}},{"type":"Feature","properties":{"name":"استخر بانک ملی"},"geometry":{"type":"Polygon","coordinates":[[[59.4634,36.34209],[59.46351,36.34231],[59.46365,36.34227],[59.46355,36.34204],[59.4634,36.34209]]]}},{"type":"Feature","properties":{},"geometry":{"type":"Polygon","coordinates":[[[59.10209,36.32735],[59.10184,36.32702],[59.10174,36.32655],[59.10172,36.32618],[59.10163,36.32594],[59.10139,36.32573],[59.10124,36.32552],[59.10101,36.32526],[59.10082,36.32483],[59.10125,36.32447],[59.10178,36.3245],[59.10226,36.32479],[59.10256,36.32511],[59.10286,36.32553],[59.10317,36.32591],[59.10336,36.32628],[59.10346,36.32656],[59.10345,36.32684],[59.10351,36.327],[59.10244,36.32728],[59.10209,36.32735]]]}},{"type":"Feature","properties":{},"geometry":{"type":"Polygon","coordinates":[[[59.61212,36.28378],[59.61215,36.28376],[59.61219,36.28376],[59.61222,36.28378],[59.61225,36.2838],[59.61226,36.28383],[59.61225,36.28386],[59.61223,36.28389],[59.6122,36.2839],[59.61216,36.28391],[59.61213,36.2839],[59.6121,36.28388],[59.61208,36.28386],[59.61208,36.28383],[59.61209,36.2838],[59.61212,36.28378]]]}},{"type":"Feature","properties":{},"geometry":{"type":"Polygon","coordinates":[[[59.45051,36.52196],[59.45067,36.52198],[59.45082,36.522],[59.45074,36.52241],[59.45073,36.5226],[59.45069,36.52279],[59.45071,36.52294],[59.45065,36.52296],[59.45047,36.52277],[59.45038,36.52273],[59.45029,36.52272],[59.45023,36.52271],[59.45018,36.52267],[59.45022,36.52259],[59.45028,36.52248],[59.45029,36.52227],[59.45038,36.52216],[59.45051,36.52196]]]}},{"type":"Feature","properties":{},"geometry":{"type":"Polygon","coordinates":[[[59.62193,36.29185],[59.62194,36.29183],[59.62193,36.29181],[59.62192,36.2918],[59.6219,36.29179],[59.62188,36.29178],[59.62185,36.29179],[59.62183,36.2918],[59.62182,36.29182],[59.62182,36.29183],[59.62182,36.29185],[59.62184,36.29187],[59.62186,36.29188],[59.62188,36.29188],[59.6219,36.29188],[59.62192,36.29187],[59.62193,36.29185]]]}},{"type":"Feature","properties":{},"geometry":{"type":"Polygon","coordinates":[[[59.6172,36.24204],[59.61585,36.24102],[59.61653,36.24043],[59.61789,36.24145],[59.6172,36.24204]]]}},{"type":"Feature","properties":{},"geometry":{"type":"Polygon","coordinates":[[[59.50743,36.32319],[59.50758,36.3231],[59.50736,36.32286],[59.50721,36.32295],[59.50743,36.32319]]]}},{"type":"Feature","properties":{},"geometry":{"type":"Polygon","coordinates":[[[59.51722,36.48592],[59.51689,36.48566],[59.517,36.48557],[59.51733,36.48584],[59.51722,36.48592]]]}},{"type":"Feature","properties":{},"geometry":{"type":"Polygon","coordinates":[[[59.56023,36.28094],[59.5603,36.28093],[59.56037,36.28086],[59.56055,36.28076],[59.56063,36.28075],[59.56064,36.28069],[59.56055,36.28065],[59.56049,36.28064],[59.56045,36.28061],[59.56035,36.28058],[59.5603,36.28063],[59.56026,36.28067],[59.56011,36.28068],[59.55997,36.28074],[59.55993,36.28078],[59.55997,36.28078],[59.56,36.28079],[59.56001,36.28082],[59.55999,36.28084],[59.55994,36.28084],[59.55996,36.28086],[59.56004,36.28091],[59.56017,36.28095],[59.56023,36.28094]]]}},{"type":"Feature","properties":{},"geometry":{"type":"Polygon","coordinates":[[[59.55987,36.28086],[59.5599,36.28083],[59.55987,36.28081],[59.55984,36.28079],[59.55985,36.28078],[59.5599,36.28077],[59.55989,36.28075],[59.55986,36.28074],[59.55981,36.28075],[59.55979,36.28077],[59.55979,36.2808],[59.55981,36.28083],[59.55987,36.28086]]]}},{"type":"Feature","properties":{},"geometry":{"type":"Polygon","coordinates":[[[59.56018,36.28147],[59.5603,36.28146],[59.5603,36.28142],[59.5603,36.28135],[59.56031,36.28132],[59.56035,36.28132],[59.5604,36.28132],[59.5604,36.28129],[59.56038,36.28125],[59.56034,36.28125],[59.56027,36.28128],[59.56024,36.28129],[59.56021,36.28129],[59.56015,36.28128],[59.56015,36.28129],[59.56015,36.28135],[59.56014,36.2814],[59.56011,36.28143],[59.56013,36.28145],[59.56016,36.28144],[59.56018,36.28147]]]}},{"type":"Feature","properties":{},"geometry":{"type":"Polygon","coordinates":[[[59.43713,36.32846],[59.43719,36.32798],[59.43622,36.32777],[59.43615,36.3278],[59.43614,36.32791],[59.43622,36.32803],[59.43664,36.32826],[59.43713,36.32846]]]}},{"type":"Feature","properties":{},"geometry":{"type":"Polygon","coordinates":[[[59.48403,36.35835],[59.48404,36.35837],[59.48406,36.35838],[59.48403,36.35841],[59.48399,36.35838],[59.48403,36.35835]]]}},{"type":"Feature","properties":{},"geometry":{"type":"Polygon","coordinates":[[[59.48442,36.35871],[59.48443,36.3587],[59.48443,36.3587],[59.48444,36.35869],[59.48445,36.35869],[59.48446,36.35869],[59.48447,36.35869],[59.48447,36.3587],[59.48448,36.3587],[59.48448,36.35871],[59.48448,36.35872],[59.48448,36.35872],[59.48447,36.35873],[59.48446,36.35873],[59.48445,36.35874],[59.48444,36.35873],[59.48444,36.35873],[59.48443,36.35873],[59.48442,36.35872],[59.48442,36.35871]]]}},{"type":"Feature","properties":{"name":"آبنما"},"geometry":{"type":"Polygon","coordinates":[[[59.61044,36.26571],[59.61054,36.2657],[59.61062,36.26564],[59.61062,36.26558],[59.61067,36.26557],[59.61071,36.26563],[59.61071,36.26571],[59.61063,36.26577],[59.61049,36.2658],[59.61042,36.26577],[59.61038,36.26574],[59.6104,36.26571],[59.61044,36.26571]]]}},{"type":"Feature","properties":{},"geometry":{"type":"Polygon","coordinates":[[[59.58227,36.40098],[59.57905,36.4024],[59.58044,36.40443],[59.5837,36.40301],[59.58227,36.40098]]]}},{"type":"Feature","properties":{},"geometry":{"type":"Polygon","coordinates":[[[59.58612,36.40965],[59.58553,36.40878],[59.58709,36.40806],[59.58769,36.40895],[59.58612,36.40965]]]}},{"type":"Feature","properties":{},"geometry":{"type":"Polygon","coordinates":[[[59.58605,36.40968],[59.58448,36.41039],[59.58385,36.40949],[59.58548,36.40879],[59.58605,36.40968]]]}},{"type":"Feature","properties":{},"geometry":{"type":"Polygon","coordinates":[[[59.58281,36.41111],[59.58221,36.41024],[59.58381,36.40953],[59.58441,36.41041],[59.58281,36.41111]]]}},{"type":"Feature","properties":{},"geometry":{"type":"Polygon","coordinates":[[[59.58275,36.41115],[59.58116,36.41185],[59.58055,36.41096],[59.58214,36.41026],[59.58275,36.41115]]]}},{"type":"Feature","properties":{},"geometry":{"type":"Polygon","coordinates":[[[59.58052,36.41091],[59.58378,36.40948],[59.58192,36.40675],[59.57868,36.4082],[59.58052,36.41091]]]}},{"type":"Feature","properties":{},"geometry":{"type":"Polygon","coordinates":[[[59.57859,36.40808],[59.58184,36.40664],[59.58046,36.40459],[59.5772,36.40604],[59.57859,36.40808]]]}},{"type":"Feature","properties":{},"geometry":{"type":"Polygon","coordinates":[[[59.57712,36.40591],[59.57573,36.40386],[59.57898,36.40243],[59.58039,36.40446],[59.57712,36.40591]]]}},{"type":"Feature","properties":{},"geometry":{"type":"Polygon","coordinates":[[[59.5819,36.40662],[59.58052,36.40457],[59.58377,36.40313],[59.58515,36.40518],[59.5819,36.40662]]]}},{"type":"Feature","properties":{},"geometry":{"type":"Polygon","coordinates":[[[59.58523,36.4053],[59.58196,36.40674],[59.58383,36.40945],[59.58706,36.40801],[59.58523,36.4053]]]}},{"type":"Feature","properties":{},"geometry":{"type":"Polygon","coordinates":[[[59.48612,36.35517],[59.48613,36.35504],[59.48628,36.35504],[59.48628,36.35517],[59.48612,36.35517]]]}},{"type":"Feature","properties":{},"geometry":{"type":"Polygon","coordinates":[[[59.31582,36.40588],[59.31569,36.4058],[59.31602,36.40538],[59.31616,36.40545],[59.31582,36.40588]]]}},{"type":"Feature","properties":{},"geometry":{"type":"Polygon","coordinates":[[[59.31321,36.40456],[59.31299,36.40448],[59.31305,36.40438],[59.31327,36.40447],[59.31321,36.40456]]]}},{"type":"Feature","properties":{},"geometry":{"type":"Polygon","coordinates":[[[59.31185,36.40486],[59.31176,36.40482],[59.31183,36.40469],[59.31193,36.40472],[59.31185,36.40486]]]}},{"type":"Feature","properties":{},"geometry":{"type":"Polygon","coordinates":[[[59.32068,36.40265],[59.32045,36.40255],[59.32052,36.40245],[59.32075,36.40254],[59.32068,36.40265]]]}},{"type":"Feature","properties":{},"geometry":{"type":"Polygon","coordinates":[[[59.33397,36.28416],[59.3344,36.284],[59.33483,36.2838],[59.33469,36.28343],[59.33445,36.2835],[59.33422,36.28382],[59.33383,36.28395],[59.33397,36.28416]]]}},{"type":"Feature","properties":{},"geometry":{"type":"Polygon","coordinates":[[[59.23698,36.57448],[59.23621,36.57494],[59.23613,36.57495],[59.23607,36.57495],[59.23602,36.57493],[59.23599,36.5749],[59.23595,36.57486],[59.23594,36.57483],[59.23595,36.57478],[59.23596,36.57473],[59.23599,36.5747],[59.23676,36.57422],[59.23684,36.5742],[59.2369,36.57421],[59.23697,36.57423],[59.23701,36.57427],[59.23705,36.57433],[59.23704,36.57439],[59.23702,36.57444],[59.23698,36.57448]]]}},{"type":"Feature","properties":{},"geometry":{"type":"Polygon","coordinates":[[[59.46569,36.3455],[59.4656,36.34549],[59.46554,36.34549],[59.46542,36.34551],[59.46532,36.34553],[59.46521,36.34557],[59.46514,36.34559],[59.46506,36.3456],[59.465,36.34559],[59.46494,36.34556],[59.46489,36.34552],[59.46487,36.34548],[59.4648,36.34553],[59.46473,36.34556],[59.4646,36.34561],[59.46454,36.34563],[59.46447,36.34565],[59.4644,36.34565],[59.46438,36.34575],[59.46435,36.34583],[59.46447,36.34587],[59.46455,36.34591],[59.46464,36.34597],[59.46469,36.34603],[59.46473,36.3461],[59.46478,36.34617],[59.46483,36.34623],[59.46491,36.34629],[59.465,36.34632],[59.4651,36.34632],[59.46519,36.34631],[59.4653,36.34631],[59.46543,36.34631],[59.46556,36.34631],[59.46572,36.34633],[59.46582,36.34633],[59.46592,36.34633],[59.46602,36.34631],[59.46611,36.34629],[59.46619,36.34626],[59.46625,36.34622],[59.46628,36.34617],[59.4663,36.34607],[59.46632,36.34599],[59.46633,36.34595],[59.46636,36.34591],[59.4664,36.34587],[59.46647,36.34585],[59.46645,36.34575],[59.46642,36.34564],[59.46633,36.34564],[59.46627,36.34564],[59.46621,36.34564],[59.46615,36.34561],[59.46609,36.34558],[59.46604,36.34553],[59.466,36.34548],[59.46597,36.34545],[59.46594,36.34543],[59.46589,36.3455],[59.46584,36.34548],[59.4658,36.34554],[59.46587,36.34556],[59.46585,36.34558],[59.46583,36.3456],[59.4658,36.34561],[59.46577,36.34561],[59.46574,36.3456],[59.46571,36.34559],[59.46569,36.34557],[59.46569,36.34554],[59.46569,36.34551],[59.46569,36.3455]]]}},{"type":"Feature","properties":{},"geometry":{"type":"Polygon","coordinates":[[[59.59898,36.29566],[59.599,36.29566],[59.59902,36.29565],[59.59904,36.29564],[59.59905,36.29562],[59.59905,36.2956],[59.59903,36.29558],[59.59901,36.29556],[59.59899,36.29556],[59.59896,36.29556],[59.59894,36.29557],[59.59893,36.29559],[59.59892,36.2956],[59.59892,36.29563],[59.59893,36.29564],[59.59895,36.29566],[59.59898,36.29566]]]}},{"type":"Feature","properties":{},"geometry":{"type":"Polygon","coordinates":[[[59.59246,36.30102],[59.59238,36.301],[59.59235,36.30094],[59.59238,36.30087],[59.59246,36.30085],[59.59253,36.30087],[59.59257,36.30093],[59.59253,36.301],[59.59246,36.30102]]]}},{"type":"Feature","properties":{},"geometry":{"type":"Polygon","coordinates":[[[59.16311,36.11144],[59.16309,36.11152],[59.1631,36.11164],[59.16301,36.11175],[59.1629,36.11182],[59.16273,36.11191],[59.1626,36.11194],[59.16248,36.11193],[59.16234,36.11186],[59.16218,36.11177],[59.16207,36.11164],[59.16195,36.11143],[59.16185,36.11122],[59.16185,36.1111],[59.16189,36.11098],[59.16196,36.11088],[59.16209,36.1108],[59.1624,36.11076],[59.16263,36.11077],[59.16278,36.11081],[59.16305,36.11081],[59.16315,36.11088],[59.16318,36.11098],[59.16316,36.11119],[59.16311,36.11144]]]}},{"type":"Feature","properties":{},"geometry":{"type":"Polygon","coordinates":[[[59.16332,36.11165],[59.16329,36.11173],[59.16333,36.11179],[59.16344,36.11184],[59.16367,36.11189],[59.16388,36.11191],[59.16403,36.1119],[59.16411,36.11188],[59.16418,36.11182],[59.16426,36.11169],[59.16436,36.11148],[59.1644,36.11131],[59.16436,36.11119],[59.16424,36.11088],[59.1641,36.11066],[59.16398,36.11052],[59.1638,36.11043],[59.16369,36.11042],[59.1635,36.11047],[59.16344,36.1105],[59.16339,36.11055],[59.16338,36.11062],[59.16338,36.11083],[59.16334,36.11134],[59.16332,36.11165]]]}},{"type":"Feature","properties":{},"geometry":{"type":"Polygon","coordinates":[[[59.29152,36.38929],[59.29163,36.38927],[59.29167,36.38919],[59.29164,36.38904],[59.29152,36.38847],[59.29149,36.38841],[59.29141,36.3884],[59.29065,36.38854],[59.28999,36.38869],[59.28987,36.38874],[59.28984,36.38882],[59.28988,36.3889],[59.28998,36.38896],[59.2902,36.389],[59.29053,36.38905],[59.29109,36.3892],[59.29141,36.38928],[59.29152,36.38929]]]}},{"type":"Feature","properties":{},"geometry":{"type":"Polygon","coordinates":[[[59.40914,36.41655],[59.40906,36.41667],[59.40896,36.41677],[59.40889,36.4168],[59.4088,36.4168],[59.40872,36.41677],[59.40865,36.41673],[59.4086,36.41667],[59.40858,36.4166],[59.40858,36.41653],[59.40862,36.41647],[59.40873,36.4164],[59.40884,36.41632],[59.40892,36.41622],[59.40901,36.41607],[59.40905,36.41594],[59.40907,36.41581],[59.40906,36.41561],[59.40905,36.41553],[59.40908,36.41544],[59.40913,36.41537],[59.40921,36.41532],[59.40931,36.41528],[59.40951,36.41528],[59.40971,36.41531],[59.40989,36.41539],[59.41003,36.41551],[59.41013,36.41565],[59.41016,36.41576],[59.41015,36.41587],[59.41009,36.41597],[59.41,36.41605],[59.40988,36.4161],[59.40962,36.41616],[59.40939,36.41628],[59.40923,36.41641],[59.40914,36.41655]]]}},{"type":"Feature","properties":{},"geometry":{"type":"Polygon","coordinates":[[[59.29123,36.38754],[59.29063,36.38739],[59.28985,36.38725],[59.28926,36.38705],[59.28907,36.38694],[59.28895,36.3867],[59.28908,36.38648],[59.28926,36.38634],[59.28975,36.38639],[59.29065,36.38656],[59.29123,36.38672],[59.29137,36.38697],[59.29138,36.38731],[59.29134,36.38753],[59.29123,36.38754]]]}},{"type":"Feature","properties":{},"geometry":{"type":"Polygon","coordinates":[[[59.38927,36.49621],[59.38955,36.49602],[59.38907,36.49566],[59.38886,36.4958],[59.38927,36.49621]]]}},{"type":"Feature","properties":{},"geometry":{"type":"Polygon","coordinates":[[[59.35931,36.49654],[59.35961,36.49669],[59.35967,36.49661],[59.3598,36.49668],[59.35983,36.49663],[59.35945,36.49642],[59.35931,36.49654]]]}},{"type":"Feature","properties":{},"geometry":{"type":"Polygon","coordinates":[[[59.24065,36.57516],[59.24081,36.57529],[59.2412,36.57502],[59.241,36.57487],[59.24065,36.57516]]]}},{"type":"Feature","properties":{},"geometry":{"type":"Polygon","coordinates":[[[59.442,36.33361],[59.44236,36.33337],[59.44207,36.33309],[59.44171,36.33332],[59.442,36.33361]]]}},{"type":"Feature","properties":{},"geometry":{"type":"Polygon","coordinates":[[[59.18015,36.3104],[59.17998,36.31036],[59.18001,36.31018],[59.18019,36.31023],[59.18019,36.3104],[59.18015,36.3104]]]}},{"type":"Feature","properties":{},"geometry":{"type":"Polygon","coordinates":[[[59.1803,36.31184],[59.18041,36.31184],[59.18042,36.31175],[59.18031,36.31175],[59.1803,36.31184]]]}},{"type":"Feature","properties":{},"geometry":{"type":"Polygon","coordinates":[[[59.23009,36.35849],[59.2302,36.35847],[59.23,36.3579],[59.22988,36.35793],[59.23009,36.35849]]]}},{"type":"Feature","properties":{},"geometry":{"type":"Polygon","coordinates":[[[59.17814,36.32414],[59.17825,36.32413],[59.17823,36.32391],[59.17811,36.32392],[59.17814,36.32414]]]}},{"type":"Feature","properties":{},"geometry":{"type":"Polygon","coordinates":[[[59.37181,36.2922],[59.37191,36.29219],[59.37244,36.29165],[59.37247,36.29158],[59.37248,36.29152],[59.37244,36.29144],[59.37224,36.29122],[59.37209,36.29115],[59.37182,36.29114],[59.37168,36.29118],[59.37158,36.29124],[59.37148,36.29133],[59.37133,36.29151],[59.37125,36.29165],[59.37126,36.2918],[59.37136,36.29195],[59.37149,36.29207],[59.37161,36.29214],[59.37169,36.29217],[59.37181,36.2922]]]}},{"type":"Feature","properties":{},"geometry":{"type":"Polygon","coordinates":[[[59.13668,36.44946],[59.13697,36.44947],[59.13726,36.44947],[59.13722,36.44943],[59.1372,36.4494],[59.13725,36.44931],[59.13729,36.44925],[59.13734,36.44915],[59.13737,36.44903],[59.13733,36.44891],[59.1373,36.44879],[59.1372,36.44873],[59.13711,36.44869],[59.13705,36.44866],[59.13696,36.44859],[59.13688,36.4485],[59.13676,36.4484],[59.13666,36.44836],[59.13651,36.44833],[59.13648,36.44831],[59.13646,36.44828],[59.13649,36.4482],[59.13648,36.44814],[59.13647,36.44808],[59.13643,36.44795],[59.13641,36.44787],[59.1364,36.44775],[59.13643,36.44765],[59.13646,36.44756],[59.13645,36.44754],[59.13644,36.44753],[59.13642,36.44753],[59.1364,36.44754],[59.1364,36.44755],[59.13639,36.4476],[59.13637,36.44766],[59.13635,36.44776],[59.13631,36.44782],[59.13629,36.4479],[59.13633,36.44793],[59.13636,36.44798],[59.1364,36.44806],[59.13641,36.44817],[59.13638,36.44825],[59.13638,36.44834],[59.13646,36.44841],[59.13655,36.44853],[59.13661,36.44866],[59.1367,36.44893],[59.1367,36.44907],[59.13673,36.44914],[59.13673,36.44927],[59.13671,36.44936],[59.1367,36.44941],[59.13668,36.44946]]]}},{"type":"Feature","properties":{},"geometry":{"type":"Polygon","coordinates":[[[59.38276,36.13053],[59.38281,36.13053],[59.38285,36.1305],[59.38286,36.13046],[59.38288,36.1304],[59.38288,36.1303],[59.38287,36.13027],[59.38283,36.13024],[59.38279,36.13024],[59.38276,36.13027],[59.38275,36.1303],[59.38272,36.13036],[59.38272,36.13045],[59.38272,36.13049],[59.38276,36.13053]]]}},{"type":"Feature","properties":{},"geometry":{"type":"Polygon","coordinates":[[[59.39653,36.13393],[59.39674,36.13393],[59.39678,36.13373],[59.39655,36.13373],[59.39653,36.13393]]]}},{"type":"Feature","properties":{},"geometry":{"type":"Polygon","coordinates":[[[59.79641,36.57481],[59.79613,36.57445],[59.79566,36.57353],[59.79548,36.57289],[59.79526,36.5723],[59.79519,36.57173],[59.79512,36.57099],[59.79512,36.57054],[59.79466,36.57049],[59.79422,36.57054],[59.79409,36.57095],[59.79375,36.57108],[59.79341,36.57054],[59.79325,36.57066],[59.79291,36.57098],[59.79268,36.57091],[59.79245,36.57004],[59.79249,36.56957],[59.79233,36.56925],[59.79296,36.56868],[59.79304,36.56871],[59.79315,36.56872],[59.79325,36.56872],[59.79335,36.56869],[59.79342,36.56863],[59.79348,36.56856],[59.79351,36.56849],[59.79354,36.56842],[59.79464,36.56874],[59.79593,36.56923],[59.79704,36.56966],[59.79759,36.56996],[59.79814,36.57038],[59.79873,36.57112],[59.79925,36.57135],[59.79937,36.57173],[59.79895,36.57212],[59.79881,36.57225],[59.79823,36.57228],[59.79721,36.57263],[59.79686,36.57276],[59.7965,36.57297],[59.79666,36.57394],[59.79663,36.57445],[59.79641,36.57481]]]}},{"type":"Feature","properties":{},"geometry":{"type":"Polygon","coordinates":[[[59.87789,36.50136],[59.87859,36.50036],[59.87785,36.50003],[59.87719,36.50072],[59.87701,36.5012],[59.87609,36.50181],[59.87636,36.50203],[59.87656,36.50187],[59.87709,36.50174],[59.87753,36.50155],[59.87762,36.50147],[59.87789,36.50136]]]}},{"type":"Feature","properties":{},"geometry":{"type":"Polygon","coordinates":[[[59.91803,36.48991],[59.91795,36.4895],[59.91772,36.48873],[59.91781,36.48855],[59.91819,36.4881],[59.91827,36.48787],[59.91823,36.48756],[59.91833,36.48737],[59.91868,36.48696],[59.91867,36.48686],[59.91876,36.48672],[59.91893,36.48655],[59.91896,36.48657],[59.9191,36.48641],[59.91887,36.48649],[59.91889,36.48651],[59.91873,36.48666],[59.91861,36.48683],[59.91835,36.48683],[59.91751,36.4869],[59.91719,36.48696],[59.91694,36.48706],[59.9168,36.48719],[59.91647,36.48753],[59.91632,36.48764],[59.91614,36.48766],[59.91606,36.48761],[59.91591,36.48761],[59.91581,36.48771],[59.91579,36.48777],[59.91569,36.48786],[59.91571,36.48794],[59.91562,36.48804],[59.91563,36.48809],[59.91569,36.48814],[59.9158,36.48815],[59.9159,36.48815],[59.91592,36.48822],[59.91601,36.48826],[59.916,36.48839],[59.91588,36.48854],[59.91595,36.48864],[59.91628,36.48857],[59.91643,36.48871],[59.91645,36.4888],[59.91671,36.48898],[59.91686,36.48901],[59.91687,36.48907],[59.91669,36.48918],[59.91656,36.48939],[59.91651,36.48951],[59.91669,36.48938],[59.91686,36.48931],[59.91696,36.48932],[59.91724,36.48942],[59.91751,36.48959],[59.91768,36.48978],[59.91776,36.48996],[59.91803,36.48991]]]}},{"type":"Feature","properties":{},"geometry":{"type":"Polygon","coordinates":[[[59.90541,36.48098],[59.90544,36.48103],[59.9055,36.48112],[59.90553,36.48118],[59.90554,36.48126],[59.90557,36.48135],[59.90558,36.48139],[59.90555,36.48142],[59.90549,36.48142],[59.90547,36.4814],[59.90543,36.48139],[59.90541,36.48141],[59.90537,36.4814],[59.90533,36.48137],[59.90531,36.48133],[59.90525,36.48131],[59.90523,36.48129],[59.90521,36.48125],[59.90521,36.4812],[59.90519,36.48115],[59.90514,36.48113],[59.90511,36.4811],[59.90516,36.48104],[59.90521,36.48102],[59.9053,36.48099],[59.90538,36.48098],[59.90541,36.48098]]]}},{"type":"Feature","properties":{"name":"طرح آبخیز داری"},"geometry":{"type":"Polygon","coordinates":[[[59.35879,36.41839],[59.35905,36.4183],[59.36123,36.41518],[59.35865,36.41416],[59.35621,36.41387],[59.35542,36.41329],[59.35522,36.41322],[59.35503,36.41315],[59.35496,36.41372],[59.35504,36.41441],[59.3551,36.4149],[59.35619,36.41527],[59.35611,36.41595],[59.35658,36.41669],[59.35715,36.41736],[59.35752,36.41756],[59.35785,36.41751],[59.35816,36.41773],[59.35813,36.41794],[59.35812,36.41805],[59.35879,36.41839]]]}},{"type":"Feature","properties":{"name":"ابخیزداری"},"geometry":{"type":"Polygon","coordinates":[[[59.36422,36.41898],[59.3652,36.41757],[59.36546,36.41733],[59.36518,36.41715],[59.36443,36.41709],[59.36337,36.41614],[59.36217,36.41564],[59.36179,36.4156],[59.36149,36.41509],[59.35913,36.41835],[59.35915,36.41845],[59.35937,36.41857],[59.35962,36.41866],[59.35998,36.41878],[59.36036,36.41884],[59.36122,36.41902],[59.36282,36.41909],[59.36422,36.41898]]]}},{"type":"Feature","properties":{},"geometry":{"type":"Polygon","coordinates":[[[59.48477,36.30776],[59.48482,36.30773],[59.48488,36.30768],[59.48497,36.30774],[59.4849,36.30779],[59.48483,36.30785],[59.48477,36.30776]]]}},{"type":"Feature","properties":{},"geometry":{"type":"Polygon","coordinates":[[[59.4853,36.30811],[59.48538,36.30818],[59.48549,36.30807],[59.48537,36.30804],[59.48534,36.30807],[59.4853,36.30811]]]}},{"type":"Feature","properties":{},"geometry":{"type":"Polygon","coordinates":[[[59.48649,36.30914],[59.48651,36.30915],[59.48652,36.30917],[59.48653,36.30919],[59.48652,36.30921],[59.4865,36.30923],[59.48655,36.30929],[59.48658,36.3093],[59.48662,36.30927],[59.48665,36.30927],[59.48668,36.30927],[59.48669,36.30926],[59.4867,36.30924],[59.48669,36.30922],[59.48669,36.30921],[59.4867,36.30919],[59.48671,36.30918],[59.48666,36.30912],[59.48663,36.3091],[59.48661,36.30908],[59.48658,36.30908],[59.48655,36.30908],[59.48652,36.30909],[59.4865,36.30911],[59.48649,36.30914]]]}},{"type":"Feature","properties":{},"geometry":{"type":"Polygon","coordinates":[[[59.48443,36.30736],[59.48441,36.30737],[59.4844,36.3074],[59.48441,36.30742],[59.48444,36.30743],[59.48446,36.30743],[59.48449,36.30742],[59.48451,36.3074],[59.4845,36.30738],[59.48449,36.30736],[59.48446,36.30735],[59.48443,36.30736]]]}},{"type":"Feature","properties":{},"geometry":{"type":"Polygon","coordinates":[[[59.48815,36.29655],[59.48813,36.29653],[59.48823,36.29648],[59.48824,36.29649],[59.48826,36.2965],[59.48815,36.29655]]]}},{"type":"Feature","properties":{},"geometry":{"type":"Polygon","coordinates":[[[59.48906,36.29613],[59.4891,36.29613],[59.48913,36.29611],[59.48915,36.29609],[59.48917,36.29608],[59.4892,36.29606],[59.48922,36.29604],[59.48922,36.29602],[59.48919,36.29602],[59.48916,36.29604],[59.48914,36.29606],[59.48913,36.29607],[59.48912,36.29608],[59.4891,36.29608],[59.48907,36.29611],[59.48906,36.29613]]]}},{"type":"Feature","properties":{},"geometry":{"type":"Polygon","coordinates":[[[59.48962,36.29566],[59.48961,36.29567],[59.48961,36.29569],[59.48962,36.2957],[59.48963,36.29571],[59.48965,36.29571],[59.48967,36.29571],[59.48968,36.29569],[59.48968,36.29568],[59.48967,36.29566],[59.48966,36.29565],[59.48964,36.29565],[59.48962,36.29566]]]}},{"type":"Feature","properties":{},"geometry":{"type":"Polygon","coordinates":[[[59.36213,36.12995],[59.36215,36.12999],[59.36217,36.12999],[59.36218,36.13],[59.36219,36.13],[59.36221,36.13],[59.36223,36.12999],[59.36224,36.12998],[59.36225,36.12996],[59.36225,36.12995],[59.36225,36.12993],[59.36224,36.12991],[59.36222,36.12989],[59.36221,36.12988],[59.36219,36.12987],[59.36217,36.12987],[59.36216,36.12987],[59.36214,36.12987],[59.36213,36.12988],[59.36212,36.12988],[59.36211,36.12989],[59.36211,36.12991],[59.36211,36.12994],[59.36212,36.12995],[59.36213,36.12995]]]}},{"type":"Feature","properties":{},"geometry":{"type":"Polygon","coordinates":[[[59.36165,36.13121],[59.36168,36.13122],[59.3617,36.13122],[59.36172,36.13122],[59.36173,36.13121],[59.36175,36.13121],[59.36176,36.1312],[59.36176,36.13119],[59.36177,36.13116],[59.36178,36.13104],[59.36178,36.13103],[59.36177,36.13102],[59.36175,36.13101],[59.36173,36.131],[59.36171,36.131],[59.3617,36.131],[59.36168,36.131],[59.36166,36.13101],[59.36165,36.13102],[59.36163,36.13103],[59.36162,36.13106],[59.36162,36.13108],[59.36162,36.13117],[59.36163,36.13119],[59.36165,36.13121]]]}},{"type":"Feature","properties":{},"geometry":{"type":"Polygon","coordinates":[[[59.72314,36.3089],[59.72339,36.30864],[59.72349,36.30847],[59.72351,36.30833],[59.72351,36.30824],[59.72363,36.30824],[59.72371,36.30821],[59.7238,36.30811],[59.72384,36.30801],[59.7239,36.30797],[59.72403,36.30798],[59.72419,36.30796],[59.72434,36.30792],[59.72451,36.30785],[59.72457,36.30784],[59.7247,36.30778],[59.7249,36.30769],[59.72502,36.3076],[59.7251,36.30751],[59.72506,36.30742],[59.72497,36.30737],[59.72488,36.30733],[59.72479,36.30736],[59.72462,36.30747],[59.72451,36.30752],[59.72445,36.30753],[59.72443,36.30757],[59.72435,36.30761],[59.7241,36.30766],[59.72396,36.30766],[59.72383,36.30768],[59.72368,36.3077],[59.7236,36.30772],[59.72345,36.30772],[59.72339,36.30776],[59.72334,36.30778],[59.72329,36.30775],[59.7233,36.30772],[59.72334,36.30771],[59.72337,36.30767],[59.72331,36.30761],[59.72319,36.30758],[59.72303,36.30752],[59.72288,36.30747],[59.72274,36.30739],[59.72271,36.30734],[59.72268,36.30733],[59.72264,36.30733],[59.72262,36.30736],[59.72263,36.3074],[59.72269,36.30749],[59.72266,36.3079],[59.72262,36.30797],[59.72261,36.30805],[59.72263,36.30814],[59.72272,36.30819],[59.72272,36.30822],[59.72268,36.30828],[59.72265,36.30838],[59.72267,36.30845],[59.72266,36.30852],[59.72268,36.30861],[59.72263,36.30867],[59.72256,36.30874],[59.72259,36.3088],[59.72265,36.30885],[59.72264,36.30893],[59.72271,36.30896],[59.72277,36.30897],[59.72285,36.30898],[59.72291,36.30901],[59.72296,36.30904],[59.72299,36.30901],[59.72303,36.30894],[59.72308,36.30892],[59.72314,36.3089]]]}},{"type":"Feature","properties":{},"geometry":{"type":"Polygon","coordinates":[[[59.38828,36.44513],[59.38866,36.44569],[59.39179,36.44866],[59.39191,36.44872],[59.3925,36.44892],[59.39265,36.449],[59.39411,36.45011],[59.39403,36.45029],[59.39392,36.45037],[59.3938,36.45046],[59.39366,36.45046],[59.39337,36.45028],[59.39217,36.44943],[59.39148,36.44896],[59.3908,36.44837],[59.38993,36.44759],[59.38947,36.44707],[59.38886,36.44671],[59.38851,36.44643],[59.38847,36.44622],[59.38844,36.44598],[59.38822,36.44564],[59.38806,36.44545],[59.38794,36.44523],[59.38752,36.44512],[59.38722,36.44474],[59.38699,36.44457],[59.38648,36.44468],[59.3861,36.44448],[59.3856,36.44446],[59.3854,36.44428],[59.38533,36.44394],[59.3852,36.44383],[59.38496,36.44376],[59.38492,36.44338],[59.38505,36.44313],[59.38508,36.44296],[59.3849,36.44277],[59.38449,36.44263],[59.38435,36.44243],[59.38414,36.442],[59.38398,36.44186],[59.38363,36.44164],[59.38338,36.44144],[59.38327,36.44115],[59.3829,36.44078],[59.38252,36.44041],[59.38214,36.4398],[59.38202,36.43946],[59.38175,36.43902],[59.38146,36.43882],[59.3813,36.43847],[59.38109,36.43832],[59.38082,36.43802],[59.38067,36.43776],[59.3804,36.43748],[59.38036,36.43726],[59.38003,36.43695],[59.37955,36.43659],[59.37929,36.4364],[59.37912,36.43619],[59.37868,36.43603],[59.3786,36.43583],[59.37829,36.43532],[59.37793,36.43514],[59.37756,36.43496],[59.37741,36.4348],[59.37716,36.43454],[59.37613,36.43331],[59.37575,36.433],[59.37551,36.43262],[59.37499,36.43222],[59.3745,36.43132],[59.37464,36.43125],[59.37488,36.43157],[59.37528,36.43202],[59.37558,36.43212],[59.37587,36.43209],[59.37606,36.43203],[59.37639,36.43189],[59.37651,36.43199],[59.37663,36.43209],[59.37659,36.43244],[59.37675,36.43258],[59.37678,36.43273],[59.37677,36.43294],[59.3792,36.43318],[59.37971,36.43308],[59.37989,36.43303],[59.38017,36.43403],[59.38033,36.43427],[59.38064,36.43443],[59.38076,36.43474],[59.38071,36.43497],[59.3808,36.43516],[59.38076,36.43527],[59.38087,36.43553],[59.38088,36.43571],[59.38103,36.43595],[59.38143,36.43608],[59.38164,36.43632],[59.38183,36.43655],[59.38199,36.43681],[59.38199,36.43696],[59.38224,36.43725],[59.38262,36.43745],[59.38289,36.43765],[59.38312,36.43777],[59.38364,36.43795],[59.38398,36.43811],[59.38406,36.43839],[59.38424,36.43865],[59.38446,36.43872],[59.38466,36.43877],[59.38487,36.4389],[59.38523,36.43895],[59.3853,36.4391],[59.38578,36.4393],[59.38613,36.43964],[59.38647,36.43999],[59.38687,36.44047],[59.38719,36.44088],[59.38737,36.44131],[59.38761,36.44224],[59.38821,36.4446],[59.38815,36.44483],[59.38816,36.44493],[59.38828,36.44513]]]}},{"type":"Feature","properties":{},"geometry":{"type":"Polygon","coordinates":[[[59.37639,36.43189],[59.37892,36.43012],[59.37906,36.42982],[59.37911,36.4295],[59.37863,36.42821],[59.37915,36.42806],[59.38003,36.42826],[59.38062,36.4291],[59.3812,36.42952],[59.38178,36.43002],[59.38264,36.43086],[59.38171,36.43135],[59.38107,36.43125],[59.38094,36.43098],[59.38033,36.4307],[59.37966,36.4305],[59.37932,36.4305],[59.37808,36.43129],[59.37687,36.43199],[59.37663,36.43209],[59.37651,36.43199],[59.37639,36.43189]]]}},{"type":"Feature","properties":{},"geometry":{"type":"Polygon","coordinates":[[[59.59765,36.29922],[59.59763,36.29921],[59.59761,36.2992],[59.5976,36.29918],[59.5976,36.29916],[59.5976,36.29914],[59.59761,36.29913],[59.59763,36.29912],[59.59765,36.29911],[59.59767,36.29911],[59.59769,36.29911],[59.59771,36.29912],[59.59772,36.29914],[59.59773,36.29915],[59.59773,36.29917],[59.59772,36.29919],[59.59771,36.2992],[59.59769,36.29921],[59.59767,36.29922],[59.59765,36.29922]]]}},{"type":"Feature","properties":{},"geometry":{"type":"Polygon","coordinates":[[[59.43727,36.33044],[59.43703,36.32987],[59.43757,36.32972],[59.43782,36.33029],[59.43727,36.33044]]]}},{"type":"Feature","properties":{},"geometry":{"type":"Polygon","coordinates":[[[59.36322,36.30626],[59.36324,36.30625],[59.36327,36.30625],[59.3633,36.30626],[59.36332,36.30627],[59.36333,36.30629],[59.36332,36.30631],[59.36331,36.30633],[59.36329,36.30635],[59.36327,36.30635],[59.36325,36.30635],[59.36322,36.30635],[59.3632,36.30633],[59.36319,36.30631],[59.36319,36.30629],[59.3632,36.30627],[59.36322,36.30626]]]}},{"type":"Feature","properties":{},"geometry":{"type":"Polygon","coordinates":[[[59.36199,36.30609],[59.36202,36.30607],[59.36205,36.30606],[59.36209,36.30605],[59.36212,36.30606],[59.36215,36.30607],[59.36217,36.3061],[59.36219,36.30612],[59.36219,36.30615],[59.36218,36.30618],[59.36216,36.3062],[59.36213,36.30622],[59.36209,36.30623],[59.36206,36.30622],[59.36203,36.30622],[59.36201,36.3062],[59.36199,36.30618],[59.36198,36.30616],[59.36197,36.30614],[59.36198,36.30611],[59.36199,36.30609]]]}},{"type":"Feature","properties":{},"geometry":{"type":"Polygon","coordinates":[[[59.58446,36.1827],[59.58463,36.18246],[59.58476,36.18234],[59.58482,36.18225],[59.58481,36.18218],[59.58482,36.18211],[59.5849,36.18202],[59.58509,36.18194],[59.58528,36.18187],[59.5854,36.18176],[59.58541,36.18172],[59.58532,36.18164],[59.58522,36.1816],[59.58513,36.18164],[59.58505,36.1817],[59.58491,36.18165],[59.58488,36.18169],[59.5849,36.18177],[59.58483,36.18187],[59.58466,36.182],[59.58464,36.18212],[59.58459,36.18231],[59.58454,36.18242],[59.5845,36.18252],[59.58446,36.1827]]]}},{"type":"Feature","properties":{},"geometry":{"type":"Polygon","coordinates":[[[59.54307,36.2448],[59.54311,36.24478],[59.5432,36.24462],[59.5432,36.2446],[59.5432,36.24458],[59.54298,36.24451],[59.54295,36.2445],[59.54292,36.24451],[59.54284,36.24468],[59.54283,36.24471],[59.54285,36.24473],[59.54307,36.2448]]]}},{"type":"Feature","properties":{},"geometry":{"type":"Polygon","coordinates":[[[59.38164,36.34487],[59.38143,36.34462],[59.38132,36.34475],[59.38119,36.34485],[59.38103,36.3449],[59.38092,36.34489],[59.38079,36.34476],[59.38071,36.34455],[59.3805,36.34443],[59.38046,36.3446],[59.38057,36.3449],[59.38077,36.34503],[59.38102,36.3451],[59.38132,36.34511],[59.38154,36.34501],[59.38164,36.34487]]]}},{"type":"Feature","properties":{},"geometry":{"type":"Polygon","coordinates":[[[59.34646,36.32087],[59.34643,36.32086],[59.34641,36.32085],[59.34651,36.32067],[59.34651,36.32065],[59.34655,36.32057],[59.34632,36.32007],[59.34633,36.32006],[59.34638,36.32005],[59.34662,36.32058],[59.34654,36.32073],[59.34652,36.32072],[59.34646,36.32081],[59.34649,36.32082],[59.34646,36.32087]]]}},{"type":"Feature","properties":{},"geometry":{"type":"Polygon","coordinates":[[[59.34619,36.32006],[59.34623,36.32007],[59.34626,36.32007],[59.3463,36.32007],[59.34632,36.32007],[59.34633,36.32006],[59.34638,36.32005],[59.34641,36.32003],[59.34644,36.32001],[59.34646,36.31999],[59.34647,36.31997],[59.34648,36.31995],[59.34647,36.31993],[59.34645,36.31991],[59.34643,36.3199],[59.34639,36.31989],[59.34635,36.31989],[59.34631,36.31989],[59.34627,36.3199],[59.34624,36.31991],[59.3462,36.31993],[59.34618,36.31995],[59.34616,36.31998],[59.34615,36.32],[59.34615,36.32003],[59.34617,36.32005],[59.34619,36.32006]]]}},{"type":"Feature","properties":{},"geometry":{"type":"Polygon","coordinates":[[[59.34641,36.32106],[59.34642,36.32101],[59.34643,36.32097],[59.3464,36.32094],[59.34636,36.32094],[59.34634,36.32094],[59.34636,36.32099],[59.34633,36.32104],[59.34634,36.32106],[59.34638,36.32107],[59.34641,36.32106]]]}},{"type":"Feature","properties":{},"geometry":{"type":"Polygon","coordinates":[[[59.38582,36.3439],[59.38579,36.3438],[59.38592,36.34366],[59.38603,36.34357],[59.38616,36.34352],[59.38638,36.34344],[59.38645,36.34333],[59.3862,36.34316],[59.38603,36.34324],[59.38593,36.34329],[59.38579,36.34333],[59.38567,36.3433],[59.38549,36.34321],[59.38536,36.34318],[59.38511,36.34317],[59.38496,36.3432],[59.38488,36.34324],[59.38465,36.34334],[59.38447,36.34343],[59.3846,36.34344],[59.38489,36.34338],[59.38502,36.34336],[59.38519,36.34338],[59.38538,36.34345],[59.38557,36.34354],[59.38564,36.3436],[59.38563,36.34366],[59.3856,36.34368],[59.38551,36.34372],[59.38547,36.34375],[59.38558,36.34374],[59.38567,36.34377],[59.38572,36.34385],[59.38582,36.3439]]]}},{"type":"Feature","properties":{},"geometry":{"type":"Polygon","coordinates":[[[59.61246,36.25294],[59.61249,36.25296],[59.6125,36.25298],[59.61252,36.25302],[59.61255,36.25304],[59.6126,36.25307],[59.61263,36.25307],[59.61265,36.25307],[59.61268,36.25306],[59.61273,36.25297],[59.61273,36.25294],[59.61273,36.25292],[59.61271,36.2529],[59.61269,36.25289],[59.61265,36.25289],[59.61259,36.2529],[59.61254,36.2529],[59.61248,36.25289],[59.61242,36.25288],[59.61233,36.25286],[59.61226,36.25284],[59.61219,36.25283],[59.61209,36.25283],[59.61197,36.25286],[59.61192,36.25287],[59.6119,36.25288],[59.61189,36.2529],[59.61183,36.25302],[59.61181,36.25307],[59.61176,36.25311],[59.61177,36.25313],[59.61178,36.25314],[59.61187,36.25312],[59.61195,36.25311],[59.61207,36.25311],[59.61211,36.25311],[59.61216,36.2531],[59.6122,36.25308],[59.61225,36.25304],[59.61229,36.25299],[59.61233,36.25296],[59.61236,36.25295],[59.61239,36.25294],[59.61246,36.25294]]]}},{"type":"Feature","properties":{},"geometry":{"type":"Polygon","coordinates":[[[59.60501,36.25489],[59.60503,36.25492],[59.60503,36.25494],[59.60499,36.25496],[59.60496,36.25495],[59.60494,36.25493],[59.60495,36.2549],[59.60498,36.25488],[59.60501,36.25489]]]}},{"type":"Feature","properties":{},"geometry":{"type":"Polygon","coordinates":[[[59.60883,36.25433],[59.60884,36.25433],[59.60886,36.25433],[59.60888,36.25434],[59.60889,36.25435],[59.60889,36.25437],[59.60889,36.25438],[59.60888,36.25439],[59.60886,36.2544],[59.60884,36.2544],[59.60883,36.2544],[59.60881,36.25439],[59.6088,36.25438],[59.60883,36.25433]]]}},{"type":"Feature","properties":{},"geometry":{"type":"Polygon","coordinates":[[[59.60687,36.25288],[59.6069,36.25287],[59.60692,36.25286],[59.60695,36.25286],[59.60698,36.25286],[59.60701,36.25287],[59.60706,36.2529],[59.6071,36.25291],[59.60714,36.25291],[59.60718,36.2529],[59.60721,36.25289],[59.60724,36.25287],[59.60727,36.25285],[59.60729,36.25282],[59.6073,36.25279],[59.60731,36.25276],[59.6073,36.25273],[59.60723,36.25261],[59.60722,36.2526],[59.60721,36.25258],[59.60719,36.25258],[59.60716,36.25257],[59.60714,36.25257],[59.60711,36.25258],[59.60681,36.25274],[59.60666,36.25286],[59.60668,36.25288],[59.6067,36.2529],[59.60673,36.25291],[59.60676,36.25292],[59.60679,36.25292],[59.60682,36.25291],[59.60685,36.2529],[59.60687,36.25288]]]}},{"type":"Feature","properties":{},"geometry":{"type":"Polygon","coordinates":[[[59.50072,36.36849],[59.50071,36.36857],[59.50039,36.36856],[59.50039,36.36848],[59.50072,36.36849]]]}},{"type":"Feature","properties":{},"geometry":{"type":"Polygon","coordinates":[[[59.71421,36.31637],[59.7142,36.31702],[59.71372,36.31775],[59.71323,36.31746],[59.71344,36.31714],[59.71368,36.31712],[59.71376,36.3169],[59.71361,36.3167],[59.7137,36.31657],[59.71385,36.31662],[59.71395,36.31642],[59.71408,36.31636],[59.71421,36.31637]]]}},{"type":"Feature","properties":{},"geometry":{"type":"Polygon","coordinates":[[[59.23626,36.47521],[59.23625,36.47527],[59.23633,36.47533],[59.2364,36.47533],[59.23657,36.47518],[59.23659,36.47514],[59.23657,36.4751],[59.2365,36.47506],[59.23644,36.47506],[59.2364,36.47509],[59.23626,36.47521]]]}},{"type":"Feature","properties":{},"geometry":{"type":"Polygon","coordinates":[[[59.49968,36.59373],[59.49971,36.59394],[59.49979,36.5942],[59.5,36.5941],[59.50023,36.59407],[59.50044,36.5941],[59.50069,36.59406],[59.50094,36.59396],[59.50103,36.59385],[59.50037,36.59349],[59.50027,36.59344],[59.50014,36.59345],[59.5,36.59348],[59.49974,36.59361],[59.49968,36.59373]]]}},{"type":"Feature","properties":{},"geometry":{"type":"Polygon","coordinates":[[[59.10123,36.59494],[59.10119,36.59478],[59.10148,36.59433],[59.10183,36.59413],[59.10228,36.59409],[59.1033,36.59468],[59.10379,36.5947],[59.10403,36.59477],[59.10411,36.59487],[59.10196,36.59555],[59.10161,36.59528],[59.10123,36.59494]]]}},{"type":"Feature","properties":{},"geometry":{"type":"Polygon","coordinates":[[[59.10236,36.59624],[59.10281,36.59611],[59.10316,36.59609],[59.10364,36.59523],[59.10407,36.59531],[59.1044,36.59514],[59.10469,36.5954],[59.10542,36.59641],[59.10533,36.59677],[59.10271,36.59733],[59.10246,36.59661],[59.10236,36.59624]]]}},{"type":"Feature","properties":{},"geometry":{"type":"Polygon","coordinates":[[[59.10311,36.598],[59.10359,36.59754],[59.10449,36.5974],[59.10504,36.5973],[59.10546,36.59701],[59.10604,36.59692],[59.1062,36.5974],[59.10602,36.5978],[59.10473,36.59806],[59.10354,36.5983],[59.10311,36.598]]]}},{"type":"Feature","properties":{},"geometry":{"type":"Polygon","coordinates":[[[59.10524,36.5982],[59.10567,36.59806],[59.10596,36.59819],[59.10613,36.5982],[59.10632,36.59864],[59.10615,36.59896],[59.10423,36.59946],[59.10394,36.5988],[59.10428,36.59853],[59.10455,36.59844],[59.1048,36.59845],[59.10507,36.5983],[59.10509,36.59824],[59.10524,36.5982]]]}},{"type":"Feature","properties":{},"geometry":{"type":"Polygon","coordinates":[[[59.10465,36.60074],[59.10488,36.60048],[59.10507,36.60003],[59.10526,36.60011],[59.1055,36.59975],[59.10587,36.59972],[59.10625,36.59987],[59.10649,36.60016],[59.10673,36.60016],[59.10694,36.60022],[59.10764,36.60166],[59.10745,36.60178],[59.10463,36.60147],[59.10465,36.60074]]]}},{"type":"Feature","properties":{},"geometry":{"type":"Polygon","coordinates":[[[59.10499,36.60286],[59.10528,36.60256],[59.1054,36.60212],[59.10553,36.60191],[59.10572,36.60183],[59.10602,36.60191],[59.10703,36.60199],[59.1078,36.60203],[59.1079,36.60202],[59.10809,36.60229],[59.10868,36.60357],[59.10529,36.60376],[59.10499,36.60286]]]}},{"type":"Feature","properties":{},"geometry":{"type":"Polygon","coordinates":[[[59.10611,36.60507],[59.10641,36.60554],[59.10988,36.60542],[59.10937,36.60468],[59.10863,36.60437],[59.10786,36.6041],[59.1076,36.60394],[59.10697,36.60415],[59.10678,36.60449],[59.10648,36.60459],[59.10634,36.60483],[59.1062,36.60487],[59.10611,36.60507]]]}},{"type":"Feature","properties":{},"geometry":{"type":"Polygon","coordinates":[[[59.10893,36.60784],[59.11155,36.60786],[59.11122,36.60724],[59.11065,36.60699],[59.11011,36.60663],[59.10987,36.60654],[59.10949,36.60683],[59.10943,36.60713],[59.10907,36.60728],[59.10896,36.6074],[59.10887,36.60757],[59.10875,36.60768],[59.10893,36.60784]]]}},{"type":"Feature","properties":{},"geometry":{"type":"Polygon","coordinates":[[[59.11094,36.61048],[59.11256,36.60992],[59.11238,36.6096],[59.11204,36.60964],[59.11169,36.60959],[59.11151,36.60964],[59.11118,36.60973],[59.11113,36.61],[59.11092,36.61019],[59.11088,36.61036],[59.11094,36.61048]]]}},{"type":"Feature","properties":{},"geometry":{"type":"Polygon","coordinates":[[[59.11151,36.61132],[59.11151,36.61143],[59.11172,36.61178],[59.11303,36.61173],[59.11329,36.61119],[59.11306,36.61053],[59.11263,36.61058],[59.11241,36.61068],[59.11198,36.61085],[59.11167,36.61103],[59.11156,36.61112],[59.11151,36.61132]]]}},{"type":"Feature","properties":{},"geometry":{"type":"Polygon","coordinates":[[[59.11365,36.61385],[59.11216,36.61413],[59.11212,36.61356],[59.11339,36.6132],[59.11329,36.61288],[59.11209,36.61313],[59.11204,36.61251],[59.11232,36.61237],[59.11245,36.61228],[59.11268,36.61228],[59.11297,36.61243],[59.11321,36.61243],[59.11341,36.6126],[59.11362,36.61311],[59.11365,36.61385]]]}},{"type":"Feature","properties":{},"geometry":{"type":"Polygon","coordinates":[[[59.8789,36.11066],[59.87897,36.11066],[59.87915,36.11048],[59.87918,36.11039],[59.87917,36.11026],[59.87909,36.1101],[59.87842,36.10943],[59.87829,36.10943],[59.87687,36.10811],[59.87673,36.10808],[59.87663,36.10808],[59.87603,36.10836],[59.8762,36.10858],[59.87615,36.10861],[59.87596,36.1084],[59.87505,36.10892],[59.87474,36.10912],[59.87456,36.10942],[59.87451,36.10983],[59.87466,36.1104],[59.87488,36.11085],[59.87658,36.11216],[59.87704,36.11222],[59.87719,36.11219],[59.8775,36.11202],[59.87879,36.11079],[59.8788,36.11074],[59.87854,36.11054],[59.87852,36.11051],[59.87859,36.11045],[59.87865,36.11045],[59.87878,36.11057],[59.8789,36.11066]]]}},{"type":"Feature","properties":{},"geometry":{"type":"Polygon","coordinates":[[[59.43452,36.34535],[59.43484,36.34534],[59.43484,36.34529],[59.43452,36.3453],[59.43452,36.34535]]]}},{"type":"Feature","properties":{},"geometry":{"type":"Polygon","coordinates":[[[59.43402,36.34537],[59.43433,36.34536],[59.43433,36.34531],[59.43402,36.34533],[59.43402,36.34537]]]}},{"type":"Feature","properties":{},"geometry":{"type":"Polygon","coordinates":[[[59.76788,36.13039],[59.76797,36.13058],[59.76812,36.1307],[59.76811,36.13087],[59.76828,36.13109],[59.7689,36.13175],[59.76905,36.13168],[59.76921,36.13178],[59.76926,36.13173],[59.76945,36.13157],[59.76915,36.13143],[59.76896,36.13122],[59.76867,36.13107],[59.76857,36.13093],[59.76844,36.13073],[59.76813,36.13051],[59.76797,36.13038],[59.76788,36.13039]]]}},{"type":"Feature","properties":{},"geometry":{"type":"Polygon","coordinates":[[[59.76947,36.13188],[59.76966,36.13189],[59.76973,36.13192],[59.7698,36.13201],[59.76984,36.13207],[59.76988,36.13212],[59.76992,36.13217],[59.76999,36.13223],[59.77004,36.13229],[59.77009,36.13237],[59.77014,36.13243],[59.77018,36.1325],[59.77023,36.13256],[59.77027,36.13262],[59.77033,36.13267],[59.77038,36.13274],[59.77042,36.1328],[59.77044,36.13286],[59.77046,36.13293],[59.7705,36.13299],[59.77053,36.13305],[59.77059,36.13313],[59.77065,36.13319],[59.77068,36.13324],[59.77073,36.1333],[59.77068,36.13333],[59.77064,36.13336],[59.77048,36.13315],[59.77045,36.13309],[59.77039,36.13302],[59.77037,36.13296],[59.77033,36.13286],[59.7703,36.1328],[59.77025,36.13273],[59.77019,36.13267],[59.77016,36.13261],[59.77011,36.13255],[59.77005,36.13249],[59.77,36.13244],[59.76996,36.13237],[59.76991,36.13231],[59.76987,36.13226],[59.76979,36.1322],[59.76961,36.13211],[59.76952,36.13207],[59.76946,36.13199],[59.76947,36.13188]]]}},{"type":"Feature","properties":{},"geometry":{"type":"Polygon","coordinates":[[[59.87214,36.18534],[59.87234,36.18527],[59.87368,36.18621],[59.87394,36.18647],[59.87477,36.18767],[59.87483,36.18804],[59.87468,36.18817],[59.87467,36.18823],[59.87482,36.18835],[59.87475,36.1884],[59.87452,36.18817],[59.87441,36.18817],[59.87423,36.18807],[59.87376,36.18729],[59.8737,36.18719],[59.87367,36.18714],[59.87355,36.187],[59.8735,36.18694],[59.87336,36.18674],[59.87317,36.18662],[59.87303,36.18651],[59.87296,36.18644],[59.87284,36.18633],[59.87275,36.18626],[59.8727,36.18621],[59.87254,36.18605],[59.87238,36.1859],[59.87231,36.18583],[59.87223,36.18573],[59.87215,36.18564],[59.87209,36.18556],[59.87209,36.18549],[59.87214,36.18534]]]}},{"type":"Feature","properties":{},"geometry":{"type":"Polygon","coordinates":[[[59.57501,36.25628],[59.57498,36.25617],[59.57502,36.2561],[59.57506,36.25603],[59.57514,36.25603],[59.57527,36.25592],[59.5754,36.2559],[59.57549,36.25586],[59.57554,36.25581],[59.57557,36.25576],[59.5756,36.25575],[59.57582,36.2559],[59.5759,36.25593],[59.57587,36.256],[59.57586,36.25606],[59.57586,36.25612],[59.5758,36.25616],[59.57574,36.2562],[59.57565,36.25624],[59.57551,36.25627],[59.57542,36.25628],[59.57534,36.25632],[59.57528,36.25635],[59.57519,36.25636],[59.5751,36.25635],[59.57501,36.25628]]]}},{"type":"Feature","properties":{},"geometry":{"type":"Polygon","coordinates":[[[59.57231,36.2548],[59.57237,36.25473],[59.57246,36.25463],[59.57226,36.25455],[59.57214,36.25451],[59.57206,36.25459],[59.57203,36.25461],[59.57214,36.25473],[59.57231,36.2548]]]}},{"type":"Feature","properties":{},"geometry":{"type":"Polygon","coordinates":[[[59.46762,36.3458],[59.46756,36.3457],[59.46751,36.3456],[59.46767,36.34552],[59.4678,36.34544],[59.46792,36.34538],[59.46816,36.3453],[59.46825,36.34531],[59.46831,36.3453],[59.46835,36.34527],[59.46838,36.34521],[59.46864,36.3451],[59.46885,36.34505],[59.469,36.34503],[59.46904,36.34503],[59.46902,36.34509],[59.46902,36.34512],[59.46903,36.34514],[59.46905,36.34515],[59.46906,36.34514],[59.46908,36.34517],[59.4691,36.34519],[59.46914,36.3452],[59.46913,36.34524],[59.46911,36.34524],[59.4691,36.34525],[59.4691,36.34526],[59.4691,36.34527],[59.46912,36.34528],[59.46913,36.34528],[59.46914,36.34527],[59.46915,36.34526],[59.46915,36.34525],[59.46918,36.3452],[59.46917,36.34529],[59.46916,36.34529],[59.46915,36.34531],[59.46915,36.34532],[59.46915,36.34534],[59.46917,36.34535],[59.46918,36.34535],[59.4692,36.34535],[59.46922,36.34534],[59.46923,36.34532],[59.46923,36.34531],[59.46922,36.34529],[59.4692,36.34529],[59.4692,36.3452],[59.46923,36.34525],[59.46923,36.34526],[59.46923,36.34527],[59.46925,36.34528],[59.46926,36.34528],[59.46927,36.34527],[59.46928,36.34526],[59.46927,36.34525],[59.46926,36.34524],[59.46925,36.34524],[59.46923,36.3452],[59.46925,36.3452],[59.46926,36.34519],[59.46928,36.34517],[59.4693,36.34516],[59.46933,36.34516],[59.46934,36.34515],[59.46935,36.34513],[59.46935,36.34505],[59.46946,36.34507],[59.46958,36.34511],[59.46973,36.34518],[59.46987,36.34525],[59.46994,36.34529],[59.46999,36.3453],[59.46996,36.3454],[59.46992,36.3455],[59.46982,36.34549],[59.46974,36.3455],[59.46966,36.34555],[59.46959,36.3456],[59.46955,36.34568],[59.46952,36.34572],[59.46948,36.34576],[59.46944,36.34579],[59.4694,36.34582],[59.46935,36.34584],[59.46929,36.34585],[59.46923,36.34586],[59.46917,36.34586],[59.46911,36.34585],[59.46906,36.34583],[59.469,36.34581],[59.46896,36.34578],[59.46892,36.34575],[59.46887,36.34573],[59.46882,36.34572],[59.46877,36.34571],[59.46873,36.34571],[59.46865,36.34571],[59.46858,36.34571],[59.4685,36.3457],[59.46841,36.34568],[59.46833,36.34566],[59.46825,36.34563],[59.46818,36.34563],[59.46812,36.34562],[59.46805,36.34563],[59.46798,36.34564],[59.46791,36.34566],[59.46762,36.3458]]]}},{"type":"Feature","properties":{},"geometry":{"type":"Polygon","coordinates":[[[59.61431,36.28881],[59.61439,36.28874],[59.6142,36.28862],[59.61413,36.28868],[59.61419,36.28872],[59.61431,36.28881]]]}},{"type":"Feature","properties":{},"geometry":{"type":"Polygon","coordinates":[[[59.54928,36.19698],[59.54928,36.19699],[59.54928,36.19699],[59.54929,36.197],[59.54929,36.19701],[59.54928,36.19701],[59.54927,36.19702],[59.54927,36.19702],[59.54926,36.19703],[59.54926,36.19702],[59.54926,36.19701],[59.54926,36.197],[59.54926,36.19699],[59.54927,36.19698],[59.54927,36.19698],[59.54928,36.19698]]]}},{"type":"Feature","properties":{},"geometry":{"type":"Polygon","coordinates":[[[59.54859,36.19801],[59.54856,36.19801],[59.54856,36.19803],[59.54858,36.19806],[59.5486,36.19806],[59.54862,36.19806],[59.54864,36.19805],[59.54865,36.19802],[59.54862,36.19801],[59.54863,36.19793],[59.54866,36.19794],[59.54868,36.19791],[59.54866,36.1979],[59.54868,36.19787],[59.5487,36.19785],[59.54871,36.19784],[59.54873,36.19787],[59.54875,36.19785],[59.54876,36.19784],[59.54875,36.19782],[59.54884,36.19777],[59.54897,36.19773],[59.54903,36.19771],[59.54908,36.1977],[59.54909,36.19773],[59.54918,36.19771],[59.54916,36.19764],[59.54907,36.19765],[59.54908,36.19769],[59.54898,36.19771],[59.54883,36.19776],[59.54874,36.19781],[59.54872,36.1978],[59.54868,36.19781],[59.5487,36.19783],[59.54864,36.19789],[59.5486,36.19789],[59.54858,36.19792],[59.54861,36.19792],[59.5486,36.19801],[59.54859,36.19801]]]}},{"type":"Feature","properties":{},"geometry":{"type":"Polygon","coordinates":[[[59.54962,36.19681],[59.54962,36.19679],[59.54963,36.19678],[59.54965,36.19681],[59.54963,36.19682],[59.54962,36.19681]]]}},{"type":"Feature","properties":{},"geometry":{"type":"Polygon","coordinates":[[[59.53684,36.31357],[59.53682,36.31351],[59.53696,36.31347],[59.53698,36.31353],[59.53684,36.31357]]]}},{"type":"Feature","properties":{},"geometry":{"type":"Polygon","coordinates":[[[59.61198,36.25553],[59.61193,36.25553],[59.61193,36.25549],[59.61198,36.25549],[59.61198,36.25553]]]}},{"type":"Feature","properties":{},"geometry":{"type":"Polygon","coordinates":[[[59.61221,36.25529],[59.61219,36.25527],[59.61217,36.25526],[59.6122,36.25523],[59.61222,36.25524],[59.61224,36.25525],[59.61221,36.25529]]]}},{"type":"Feature","properties":{},"geometry":{"type":"Polygon","coordinates":[[[59.61285,36.25464],[59.61283,36.25463],[59.61281,36.25461],[59.61284,36.25458],[59.61286,36.25459],[59.61288,36.25461],[59.61285,36.25464]]]}},{"type":"Feature","properties":{},"geometry":{"type":"Polygon","coordinates":[[[59.61311,36.25438],[59.61311,36.25434],[59.61306,36.25434],[59.61307,36.25438],[59.61311,36.25438]]]}},{"type":"Feature","properties":{},"geometry":{"type":"Polygon","coordinates":[[[59.61246,36.25488],[59.61249,36.25487],[59.61252,36.25486],[59.61255,36.25487],[59.61258,36.25488],[59.6126,36.2549],[59.61261,36.25492],[59.61261,36.25495],[59.6126,36.25497],[59.61258,36.25499],[59.61255,36.255],[59.61252,36.25501],[59.61249,36.255],[59.61246,36.25499],[59.61244,36.25497],[59.61243,36.25495],[59.61243,36.25492],[59.61244,36.2549],[59.61246,36.25488]]]}},{"type":"Feature","properties":{},"geometry":{"type":"Polygon","coordinates":[[[59.60667,36.25373],[59.60663,36.25371],[59.60663,36.25367],[59.60665,36.25364],[59.6067,36.25364],[59.60674,36.25366],[59.60675,36.2537],[59.60672,36.25373],[59.60667,36.25373]]]}},{"type":"Feature","properties":{"name":"ذخیره آب کشاورزی"},"geometry":{"type":"Polygon","coordinates":[[[59.26825,36.46669],[59.26802,36.46662],[59.26801,36.46661],[59.26801,36.4666],[59.26801,36.46659],[59.26801,36.46658],[59.26802,36.46657],[59.26812,36.46638],[59.26813,36.46637],[59.26814,36.46637],[59.26815,36.46637],[59.26816,36.46637],[59.26834,36.46642],[59.26835,36.46642],[59.26835,36.46642],[59.26835,36.46643],[59.26835,36.46644],[59.26829,36.46667],[59.26828,36.46668],[59.26828,36.46669],[59.26827,36.46669],[59.26826,36.4667],[59.26825,36.46669]]]}},{"type":"Feature","properties":{},"geometry":{"type":"Polygon","coordinates":[[[59.26493,36.4774],[59.26554,36.47765],[59.26609,36.4767],[59.26546,36.47645],[59.26493,36.4774]]]}},{"type":"Feature","properties":{},"geometry":{"type":"Polygon","coordinates":[[[59.26598,36.47552],[59.26628,36.47561],[59.2663,36.47561],[59.26632,36.47561],[59.26633,36.47561],[59.26634,36.47561],[59.26635,36.47561],[59.26636,36.4756],[59.26636,36.47559],[59.26638,36.47557],[59.26639,36.47556],[59.26639,36.47555],[59.26639,36.47554],[59.26639,36.47552],[59.26639,36.47551],[59.26639,36.4755],[59.26638,36.4755],[59.26637,36.47549],[59.26637,36.47548],[59.26635,36.47548],[59.26622,36.47543],[59.26612,36.4754],[59.26607,36.47539],[59.26605,36.47539],[59.26603,36.47539],[59.26602,36.4754],[59.266,36.47541],[59.26598,36.47542],[59.26597,36.47544],[59.26597,36.47546],[59.26596,36.47548],[59.26596,36.47549],[59.26597,36.47551],[59.26598,36.47552]]]}},{"type":"Feature","properties":{"name":"استخر ذخیره آب کشاورزی"},"geometry":{"type":"Polygon","coordinates":[[[59.26442,36.46986],[59.26452,36.46961],[59.26486,36.46969],[59.26475,36.46995],[59.26442,36.46986]]]}},{"type":"Feature","properties":{"name":"استخر ذخیره آب کشاورزی"},"geometry":{"type":"Polygon","coordinates":[[[59.2647,36.4722],[59.26467,36.47219],[59.26465,36.47218],[59.26464,36.47217],[59.26462,36.47216],[59.26461,36.47215],[59.26459,36.47212],[59.26458,36.47211],[59.26457,36.4721],[59.26457,36.47208],[59.26456,36.47207],[59.26456,36.47206],[59.26456,36.47204],[59.26456,36.47202],[59.26456,36.47201],[59.26457,36.47198],[59.26458,36.47195],[59.2646,36.47193],[59.26462,36.4719],[59.26465,36.47188],[59.26469,36.47187],[59.26473,36.47185],[59.26477,36.47185],[59.26481,36.47185],[59.26484,36.47185],[59.26566,36.47212],[59.26569,36.47213],[59.2657,36.47214],[59.26572,36.47215],[59.26573,36.47216],[59.26574,36.47217],[59.26575,36.47219],[59.26576,36.47221],[59.26577,36.47223],[59.26578,36.47225],[59.26578,36.47227],[59.26578,36.47229],[59.26578,36.47231],[59.26578,36.47232],[59.26577,36.47233],[59.26577,36.47235],[59.26576,36.47236],[59.26575,36.47238],[59.26574,36.47239],[59.26573,36.4724],[59.26571,36.47242],[59.26569,36.47243],[59.26568,36.47244],[59.26566,36.47245],[59.26564,36.47246],[59.26562,36.47246],[59.26559,36.47247],[59.26557,36.47247],[59.26555,36.47247],[59.26553,36.47247],[59.2655,36.47247],[59.26548,36.47246],[59.2647,36.4722]]]}},{"type":"Feature","properties":{"name":"ذخیره آب کشاورزی"},"geometry":{"type":"Polygon","coordinates":[[[59.26344,36.48057],[59.26345,36.48057],[59.26346,36.48057],[59.26347,36.48057],[59.26348,36.48057],[59.26349,36.48057],[59.26349,36.48056],[59.2635,36.48056],[59.26351,36.48055],[59.26378,36.48015],[59.26378,36.48014],[59.26378,36.48014],[59.26379,36.48013],[59.26378,36.48012],[59.26378,36.48012],[59.26378,36.48011],[59.26377,36.48011],[59.26377,36.4801],[59.26337,36.47993],[59.26336,36.47993],[59.26335,36.47993],[59.26334,36.47993],[59.26334,36.47993],[59.26333,36.47993],[59.26332,36.47994],[59.26331,36.47994],[59.2633,36.47995],[59.26306,36.48035],[59.26306,36.48036],[59.26305,36.48037],[59.26305,36.48037],[59.26306,36.48038],[59.26306,36.48039],[59.26307,36.48039],[59.26307,36.4804],[59.26308,36.4804],[59.26344,36.48057]]]}},{"type":"Feature","properties":{},"geometry":{"type":"Polygon","coordinates":[[[59.27239,36.48712],[59.27241,36.4871],[59.27222,36.48696],[59.2722,36.48698],[59.27239,36.48712]]]}},{"type":"Feature","properties":{},"geometry":{"type":"Polygon","coordinates":[[[59.57241,36.25487],[59.57256,36.25469],[59.57248,36.25464],[59.57232,36.25482],[59.57241,36.25487]]]}},{"type":"Feature","properties":{},"geometry":{"type":"Polygon","coordinates":[[[59.79028,36.24351],[59.79007,36.24332],[59.79002,36.24318],[59.79016,36.24283],[59.79021,36.24266],[59.79016,36.24245],[59.79018,36.24225],[59.79034,36.24206],[59.79042,36.24197],[59.79046,36.24189],[59.79047,36.24185],[59.79048,36.24182],[59.79049,36.24179],[59.79049,36.24175],[59.79049,36.24168],[59.79046,36.24159],[59.79047,36.24149],[59.79051,36.24144],[59.79059,36.24135],[59.79061,36.24139],[59.79057,36.2415],[59.79057,36.24154],[59.79068,36.24172],[59.79075,36.24172],[59.79079,36.24171],[59.79085,36.24167],[59.79094,36.24159],[59.79099,36.24157],[59.79104,36.24156],[59.79095,36.24169],[59.7909,36.24175],[59.79086,36.24179],[59.79083,36.24182],[59.79082,36.24185],[59.7909,36.2419],[59.79093,36.24194],[59.79086,36.24222],[59.79064,36.24265],[59.79055,36.24283],[59.79057,36.24291],[59.79046,36.24328],[59.79038,36.24346],[59.79036,36.24349],[59.79033,36.24353],[59.79028,36.24351]]]}},{"type":"Feature","properties":{},"geometry":{"type":"Polygon","coordinates":[[[59.84494,36.2424],[59.84505,36.24239],[59.84513,36.24235],[59.84561,36.24189],[59.84564,36.24185],[59.84565,36.24182],[59.84565,36.2418],[59.84564,36.24177],[59.8456,36.24174],[59.84557,36.24172],[59.84497,36.24132],[59.84489,36.24131],[59.84482,36.2413],[59.84471,36.2413],[59.84373,36.24137],[59.84366,36.24139],[59.84362,36.2414],[59.84361,36.24141],[59.84359,36.24143],[59.84359,36.24145],[59.84358,36.24146],[59.84358,36.24149],[59.84359,36.24153],[59.84361,36.24157],[59.84474,36.2423],[59.84494,36.2424]]]}},{"type":"Feature","properties":{},"geometry":{"type":"Polygon","coordinates":[[[59.84461,36.2423],[59.84355,36.24161],[59.84349,36.24158],[59.84345,36.24158],[59.84344,36.24158],[59.8434,36.24159],[59.84336,36.24161],[59.84281,36.24216],[59.84279,36.24221],[59.8428,36.24224],[59.84283,36.24228],[59.84286,36.2423],[59.84386,36.24294],[59.84391,36.24296],[59.84397,36.24296],[59.844,36.24296],[59.84405,36.24294],[59.84408,36.24292],[59.84461,36.2424],[59.84462,36.24238],[59.84463,36.24236],[59.84463,36.24234],[59.84463,36.24232],[59.84461,36.2423]]]}},{"type":"Feature","properties":{},"geometry":{"type":"Polygon","coordinates":[[[59.84367,36.24303],[59.84367,36.24299],[59.84365,36.24295],[59.8427,36.24234],[59.84268,36.24233],[59.84265,36.24233],[59.84261,36.24234],[59.84259,36.24236],[59.84201,36.24294],[59.842,36.24298],[59.84201,36.24302],[59.84203,36.24304],[59.84206,36.24307],[59.8429,36.24362],[59.84298,36.24364],[59.84302,36.24364],[59.84307,36.24365],[59.84312,36.24362],[59.84317,36.24358],[59.84366,36.24307],[59.84367,36.24303]]]}},{"type":"Feature","properties":{},"geometry":{"type":"Polygon","coordinates":[[[59.8396,36.23858],[59.84001,36.23827],[59.84002,36.23821],[59.84002,36.23816],[59.84001,36.23812],[59.83964,36.23779],[59.83957,36.23776],[59.83947,36.23777],[59.83941,36.23779],[59.83904,36.23807],[59.839,36.23814],[59.83901,36.2382],[59.83904,36.23825],[59.83939,36.23858],[59.83943,36.23859],[59.83948,36.2386],[59.83951,36.2386],[59.83955,36.23859],[59.8396,36.23858]]]}},{"type":"Feature","properties":{},"geometry":{"type":"Polygon","coordinates":[[[59.8389,36.2391],[59.83929,36.23882],[59.83932,36.23877],[59.83934,36.23873],[59.83933,36.23868],[59.83931,36.23863],[59.83893,36.2383],[59.83886,36.23828],[59.83881,36.23829],[59.83876,36.2383],[59.83836,36.23859],[59.83833,36.23863],[59.83832,36.23867],[59.83832,36.23871],[59.83834,36.23875],[59.83836,36.23878],[59.8387,36.23909],[59.83874,36.2391],[59.83879,36.23911],[59.83882,36.23911],[59.83885,36.23911],[59.83888,36.23911],[59.8389,36.2391]]]}},{"type":"Feature","properties":{},"geometry":{"type":"Polygon","coordinates":[[[59.82875,36.24635],[59.82884,36.24602],[59.82827,36.24592],[59.82817,36.24625],[59.82875,36.24635]]]}},{"type":"Feature","properties":{},"geometry":{"type":"Polygon","coordinates":[[[59.46881,36.30113],[59.46869,36.3011],[59.46865,36.30106],[59.46867,36.30096],[59.46863,36.30083],[59.46861,36.30075],[59.4686,36.30071],[59.46863,36.30065],[59.46872,36.30065],[59.46888,36.30055],[59.469,36.30043],[59.46905,36.30044],[59.46909,36.30048],[59.46907,36.30054],[59.46902,36.30059],[59.46897,36.30076],[59.46891,36.30093],[59.46886,36.30103],[59.46884,36.30111],[59.46881,36.30113]]]}},{"type":"Feature","properties":{},"geometry":{"type":"Polygon","coordinates":[[[59.46617,36.30217],[59.46609,36.30218],[59.46597,36.30231],[59.4658,36.30242],[59.46561,36.30248],[59.46552,36.30257],[59.46553,36.30267],[59.46558,36.30271],[59.46571,36.3026],[59.4659,36.30253],[59.46615,36.30249],[59.46621,36.30247],[59.46632,36.30247],[59.46638,36.30244],[59.46648,36.30235],[59.46644,36.30229],[59.46627,36.30222],[59.46617,36.30217]]]}},{"type":"Feature","properties":{},"geometry":{"type":"Polygon","coordinates":[[[59.45839,36.43429],[59.45838,36.4343],[59.45838,36.4343],[59.45838,36.4343],[59.45838,36.43431],[59.45838,36.43431],[59.45838,36.43431],[59.45838,36.43432],[59.45839,36.43432],[59.45839,36.43432],[59.4584,36.43432],[59.4584,36.43431],[59.4584,36.43431],[59.45841,36.43431],[59.45841,36.4343],[59.4584,36.4343],[59.4584,36.4343],[59.4584,36.43429],[59.45839,36.43429],[59.45839,36.43429]]]}}]}